LON,LAT,NUMBER,STREET,UNIT,CITY,DISTRICT,REGION,POSTCODE,ID,HASH
-135.5002089,59.2434617,1722,Haines Hwy,,,,,,,841986b36b0c3158
-135.4925061,59.2436564,88,Cathedral View Dr,,,,,,,738bb519474be1b1
-135.4237073,59.2246151,371,S Beach Rd,,,,,,,707dd137111d687e
-135.4264856,59.2256579,317,S Beach Rd,,,,,,,3e0535fefe01fc80
-135.4271947,59.224719,271,S Beach Rd,,,,,,,262f9c804fba4a78
-135.431868,59.2255408,209,S Beach Rd,,,,,,,0a0ff6338d3c0213
-135.4330188,59.2248317,32,Kathleen Dr,,,,,,,1a315865ed4f91dd
-135.4289094,59.2250019,259,S Beach Rd,,,,,,,d4c16846fc220488
-135.4207953,59.2245544,427,S Beach Rd,,,,,,,e94dd5231c866e57
-135.4146279,59.2243383,532,S Beach Rd,,,,,,,c5a778b81e5b3827
-135.4131365,59.2232247,577,S Beach Rd,,,,,,,97ad18e616d436ab
-135.4095131,59.224034,622,S Beach Rd,,,,,,,b602da19868b41d4
-135.4076222,59.2224251,682,S Beach Rd,,,,,,,e1d1b5ee5fdccc01
-135.4077399,59.2227921,670,S Beach Rd,,,,,,,fcca255114893005
-135.4095829,59.2223844,649,S Beach Rd,,,,,,,09b0a8712366197c
-135.4065512,59.2214034,731,S Beach Rd,,,,,,,353fa96c7b3f3c14
-135.4038608,59.2219985,748,S Beach Rd,,,,,,,aed1d3a5a9e7277e
-135.4007389,59.2211142,804,S Beach Rd,,,,,,,a954006b1a086e4b
-135.3995095,59.2193311,859,S Beach Rd,,,,,,,30c67740aa89ecc2
-135.400493,59.2196475,849,S Beach Rd,,,,,,,b4b5c1a31453949e
-135.4000204,59.2203779,836,S Beach Rd,,,,,,,1b33ac70e25c6f24
-135.4036375,59.2212145,765,S Beach Rd,,,,,,,e90863ca367fbbe2
-135.4013947,59.2215091,794,S Beach Rd,,,,,,,38929b9af5d5ea7c
-135.4115643,59.2233696,608,S Beach Rd,,,,,,,6d796935e3bb7708
-135.4120372,59.2237796,584,S Beach Rd,,,,,,,f096d4c24a7a4ce0
-135.4026685,59.2218022,768,S Beach Rd,,,,,,,1bb300a20a7d71fa
-135.4297862,59.2250279,241,S Beach Rd,,,,,,,767323dbe7d08813
-135.4255117,59.224906,319,S Beach Rd,,,,,,,4a82d3dd712ce585
-135.4242814,59.2252485,361,S Beach Rd,,,,,,,26e63677aee64d59
-135.4166317,59.2234769,511,S Beach Rd,,,,,,,ab8d2dc2ac5ed9f4
-135.4085951,59.2241842,638,S Beach Rd,,,,,,,f64cde0ddc32ac3d
-135.4079882,59.223518,656,S Beach Rd,,,,,,,922e1dc4a91c75b8
-135.4310599,59.2254651,221,S Beach Rd,,,,,,,7a43ed2ddda90d5b
-135.4381809,59.22759,75,S Beach Rd,,,,,,,626fb5d480f53393
-135.4383813,59.2277014,69,S Beach Rd,,,,,,,6480047a37651f49
-135.4386762,59.2279949,61,S Beach Rd,,,,,,,c416f0e4e6ae1e74
-135.4386865,59.2278684,2,Tower Rd,,,,,,,226a6dda7f20d6cc
-135.4393676,59.2282826,39,S Beach Rd,,,,,,,29e7c43703669806
-135.4393858,59.2282396,2,Portage St,,,,,,,dcbfc7bbc76be1a1
-135.4401539,59.228603,5,Blacksmith St,,,,,,,27893bb8d590611f
-135.440274,59.2285142,11,Blacksmith St,,,,,,,ac6e2b3db8aa746e
-135.4490787,59.2265832,251,Gruening Dr,,,,,,,2a5cf16ebb47b2ca
-135.4497903,59.226938,229,Gruening Dr,,,,,,,6bea479293f84372
-135.4497682,59.2272398,227,Gruening Dr,,,,,,,688ac20419518acc
-135.4469098,59.2261571,404,River Rd,,,,,,,e850dd3bc48e0acf
-135.4474057,59.2265549,317,Mud Bay Rd,,,,,,,f5804862c220c7a8
-135.4478601,59.2267216,313,Mud Bay Rd,,,,,,,0fb72be2fa08b950
-135.4484817,59.2270893,385,S 3rd Ave,,,,,,,3743cc2b0d93f2c5
-135.4491711,59.2276506,401,Major Rd,,,,,,,4b20a7a9679746ed
-135.4493955,59.2276799,403,Major Rd,,,,,,,3288bc64db165dda
-135.4493026,59.2275208,220,Gruening Dr,,,,,,,85b137971adaa66f
-135.4463979,59.2256175,359,Mud Bay Rd,,,,,,,3f988455bbcbdc6b
-135.4461368,59.2250929,379,Mud Bay Rd,,,,,,,cf76c7b89273795c
-135.44627,59.2243837,414,Tower Rd,,,,,,,f2ca29218471e43d
-135.4431562,59.2346719,11,Main St,,,,,,,94199c699756755b
-135.4431871,59.23417,92,S 1st Ave,,,,,,,8b1f19bae8cd6925
-135.4436219,59.233622,114,S 1st Ave,,,,,,,7daa54fcbe925c23
-135.4444375,59.2340015,111,S 1st Ave,,,,,,,444ca558972fdd80
-135.4446284,59.2334497,131,S 1st Ave,,,,,,,99e89aa99d81bac9
-135.4507693,59.2194112,629,Mud Bay Rd,,,,,,,ae3018500e0b94ec
-135.447247,59.2236343,417,Mud Bay Rd,,,,,,,7d7b6d27d61aa922
-135.3985101,59.2198778,864,S Beach Rd,,,,,,,96dea53114c6b512
-135.4084633,59.2219826,717,S Beach Rd,,,,,,,77f0e0fccd0ec713
-135.4292239,59.2218547,216,Mt. Riley Rd,,,,,,,ccb7439bac539d18
-135.4447536,59.2358149,30,N 2nd Ave,,,,,,,f745d7f3e1abf68f
-135.4518332,59.2374727,523,Union St,,,,,,,92c47f5a099509fb
-135.4501762,59.2376913,430,Union St,,,,,,,bca7bceff71af882
-135.4511158,59.2384116,520,Union St,,,,,,,ddff8ab3c13c8a8e
-135.448061,59.2360707,317,Dalton St,,,,,,,503d951a74dd5e1a
-135.4477006,59.2359496,305,Dalton St,,,,,,,bcc3513872a4817a
-135.4459197,59.2283083,117,Mud Bay Rd,,,,,,,e0de8f2cc242006a
-135.4462111,59.2282793,119,Mud Bay Rd,,,,,,,a34d60aa1f8f2af2
-135.4452936,59.2289827,334,S 2nd Ave,,,,,,,77fca61defdae53f
-135.4447936,59.2289238,57,Mud Bay Rd,,,,,,,a3243bae03da95f6
-135.4440244,59.2286763,40,Mud Bay Rd,,,,,,,8ce05a145efe13ed
-135.4437614,59.2283577,16,Ft. Seward Dr,,,,,,,aa60132f954c55a5
-135.4431448,59.2284805,40,Totem Rd,,,,,,,1cabfb3c2622b08c
-135.4441636,59.2294138,41,Haines Hwy,,,,,,,2d41b52186032861
-135.4395992,59.2273653,30,Tower Rd,,,,,,,effc7010a7ea2da3
-135.4411471,59.2256243,217,Tower Rd,,,,,,,303d8ea552fb5e3d
-135.4414919,59.2255974,223,Tower Rd,,,,,,,2a010f110495ba95
-135.4419449,59.2254182,235,Tower Rd,,,,,,,0a0d2eb773b8d190
-135.4421061,59.2249988,410,FAA Rd,,,,,,,15265a6d24608409
-135.4413064,59.2252501,251,Battle Rd,,,,,,,ba279715eaec32e0
-135.4409014,59.2253296,245,Battle Rd,,,,,,,29b81f1a0ed43d6b
-135.4403671,59.2251334,242,Battle Rd,,,,,,,e5f63d3ad04d291a
-135.4407497,59.2249895,250,Battle Rd,,,,,,,57fc7a0de4d18c3d
-135.4400973,59.2253248,232,Battle Rd,,,,,,,3109a31cc66a872a
-135.4397613,59.2255329,222,Battle Rd,,,,,,,ea24cc50c0682084
-135.4404601,59.2256175,231,Battle Rd,,,,,,,fc08558b397c723c
-135.4390966,59.2250351,410,Matrix Dr,,,,,,,cc595ef49bb41edf
-135.4397058,59.2246243,211,Old Hart St,,,,,,,3a49ff4ef0e25097
-135.4401554,59.2243287,223,Old Hart St,,,,,,,2dc8322a842bc123
-135.4412041,59.2241216,438,FAA Rd,,,,,,,74239502eb661257
-135.4416136,59.2245551,278,Battle Rd,,,,,,,6bbf2c314fbfdca1
-135.4421799,59.2241309,449,FAA Rd,,,,,,,d80bb4c5618040fd
-135.4380085,59.2245748,430,Matrix Dr,,,,,,,bd9567db52015937
-135.4373116,59.2244849,446,Matrix Dr,,,,,,,2ebc62d65aa942c4
-135.4367927,59.2241088,468,Matrix Dr,,,,,,,dc5a186755175255
-135.4370225,59.2235137,475,Matrix Dr,,,,,,,1f0752ed5e8d4b61
-135.438889,59.2232912,439,New Hart Rd,,,,,,,db909a274e729325
-135.4395447,59.2235385,415,New Hart Rd,,,,,,,eb93d9c3d65038e0
-135.4404775,59.2233314,466,FAA Rd,,,,,,,126c8d135663b775
-135.4418333,59.2232265,312,Myra Ln,,,,,,,0ec041585ab30d7c
-135.4419509,59.2228457,309,Myra Ln,,,,,,,4e4d2b9c521b3624
-135.441005,59.2225111,514,FAA Rd,,,,,,,e6955e192942bc38
-135.4410524,59.2220884,522,FAA Rd,,,,,,,300479a8b85ff779
-135.441937,59.2220918,551,FAA Rd,,,,,,,ab3561bd4b8050e7
-135.44191,59.221903,561,FAA Rd,,,,,,,fd042ea31fc8d376
-135.4414826,59.2215721,571,FAA Rd,,,,,,,9436f5830f525642
-135.4437214,59.2216106,538,Small Tracts Rd,,,,,,,4a0aeb53bc786f28
-135.4439418,59.2217766,532,Small Tracts Rd,,,,,,,871887ccdecbcbfd
-135.4439507,59.2221341,520,Small Tracts Rd,,,,,,,3d42fae581ad4d5d
-135.4441979,59.2225658,442,Small Tracts Rd,,,,,,,3978449fbdfd3cfb
-135.4442972,59.2228909,436,Small Tracts Rd,,,,,,,b8204a7567d0bfc0
-135.4452955,59.2227034,441,Small Tracts Rd,,,,,,,87fe783d7b15a29a
-135.44501,59.2223839,503,Small Tracts Rd,,,,,,,fda879b1a39d2991
-135.4454781,59.2215269,535,Small Tracts Rd,,,,,,,3b2db5388cdc1ebb
-135.4448162,59.2212543,547,Small Tracts Rd,,,,,,,f094ef99996f3986
-135.443705,59.2210102,576,Small Tracts Rd,,,,,,,e316836a8a3cd5c3
-135.443573,59.2205136,584,Small Tracts Rd,,,,,,,30be373ffa4d4370
-135.4437384,59.2203242,586,Small Tracts Rd,,,,,,,150ce682e88c5237
-135.443662,59.2199398,596,Small Tracts Rd,,,,,,,45fe5cb964ee36a5
-135.445508,59.2230389,431,Small Tracts Rd,,,,,,,7baf3a9cd1121ac9
-135.4459896,59.2231565,440,Mud Bay Rd,,,,,,,b107a99a088e475f
-135.4453929,59.2234196,417,Small Tracts Rd,,,,,,,57dc37eec21a306e
-135.4443788,59.2232648,442,Small Tracts Rd,,,,,,,401f0cbba37b90c0
-135.4463779,59.2240979,417,Tower Rd,,,,,,,5b6a886503cef2cc
-135.4467896,59.2218871,522,Mud Bay Rd,,,,,,,35c8b5f0db61cb73
-135.4478862,59.2224783,507,Mud Bay Rd,,,,,,,32842e710546a5c8
-135.4482572,59.2222429,515,Mud Bay Rd,,,,,,,4115c4b5b901e454
-135.4483122,59.2219362,525,Mud Bay Rd,,,,,,,7d870a4cffbccefc
-135.4481057,59.2216634,535,Mud Bay Rd,,,,,,,2d4a70944973d3a4
-135.4471495,59.2211808,544,Mud Bay Rd,,,,,,,b6f32ab1ed606588
-135.4470593,59.2205905,554,Mud Bay Rd,,,,,,,5793d219a908fca6
-135.4485693,59.2212152,553,Mud Bay Rd,,,,,,,e6a1f503d7a8500d
-135.4476757,59.2202793,574,Mud Bay Rd,,,,,,,176fcbe3b52d801a
-135.4490406,59.2205402,585,Mud Bay Rd,,,,,,,c720602fd9ee4dac
-135.4481296,59.2198756,598,Mud Bay Rd,,,,,,,059ba97ae30a233b
-135.4500426,59.2207941,18,Raven Rd,,,,,,,cd3380cf800f4b72
-135.4508938,59.2204317,19,Raven Rd,,,,,,,f2b7b8672c613bc2
-135.4517122,59.2209151,38,Raven Rd,,,,,,,338029d6ed7cc620
-135.4500879,59.219882,615,Mud Bay Rd,,,,,,,b36dda54c5ef9ec0
-135.4492836,59.2190924,626,Mud Bay Rd,,,,,,,afc8f1c0a00e7c7a
-135.4490716,59.218379,672,Mud Bay Rd,,,,,,,ab62b142a0b476ae
-135.4485305,59.2172948,712,Mud Bay Rd,,,,,,,164ee8d1ee742d16
-135.4447653,59.2156241,751,Small Tracts Rd,,,,,,,6a9a976c8eb8cb5a
-135.4413816,59.215458,742,Small Tracts Rd,,,,,,,2435337ba44f846a
-135.4430896,59.2151812,764,Small Tracts Rd,,,,,,,0921038c12d0bf2c
-135.4445084,59.215136,777,Small Tracts Rd,,,,,,,423a527e9436e39d
-135.4432861,59.2145878,778,Small Tracts Rd,,,,,,,5e258d3140aeaa17
-135.4417589,59.2142536,808,Small Tracts Rd,,,,,,,168dadd2ddd6f45a
-135.4447504,59.2148107,779,Small Tracts Rd,,,,,,,a6b0ac25e1cecde8
-135.4385703,59.2157197,117,Small Tracts Spr,,,,,,,f94686009afc3616
-135.4358766,59.2156048,112,Small Tracts Spr,,,,,,,a28433c883afe784
-135.4349919,59.215094,96,Small Tracts Spr,,,,,,,ba99fcc54cc7fd84
-135.4340351,59.2142228,64,Small Tracts Spr,,,,,,,97585dbffc3fd955
-135.4368514,59.2145825,80,Small Tracts Spr,,,,,,,73522f9f81f41f70
-135.4365434,59.2141655,48,Small Tracts Spr,,,,,,,5e63ff84555f6702
-135.4364862,59.213157,16,Small Tracts Spr,,,,,,,4140fa16a2eec468
-135.4362342,59.2124489,974,Small Tracts Rd,,,,,,,458993cb42ba8c58
-135.4375344,59.2127959,970,Small Tracts Rd,,,,,,,57ce4d606a34f293
-135.4381468,59.2122536,961,Small Tracts Rd,,,,,,,964d95b8206d7879
-135.4394383,59.2123541,935,Small Tracts Rd,,,,,,,656cd08be12b80f8
-135.4414322,59.2119978,896,Small Tracts Rd,,,,,,,c2f4f0e2154ed1e8
-135.4425692,59.212396,881,Small Tracts Rd,,,,,,,ae70fc3b8061cb50
-135.4449268,59.2129248,11,McPhetres Rd,,,,,,,a18cf9a7950ede8a
-135.4455209,59.2132448,24,McPhetres Rd,,,,,,,33fd95c74f086b9a
-135.4464198,59.213237,38,McPhetres Rd,,,,,,,f02fd3fcaab6ef5c
-135.4479818,59.2128385,85,McPhetres Rd,,,,,,,164917c0f8d3febc
-135.4483785,59.2128035,876,Mud Bay Rd,,,,,,,14871ac03e0faff5
-135.4493823,59.2296263,99,Deishu Dr,,,,,,,26734abbabbb8e08
-135.4496463,59.2294068,96,Deishu Dr,,,,,,,be6bf0cebd573614
-135.4499478,59.2294079,90,Deishu Dr,,,,,,,01028755efa1ece8
-135.4502731,59.2294076,86,Deishu Dr,,,,,,,e837f0e85def424a
-135.4504156,59.2296237,83,Deishu Dr,,,,,,,8ff093ae88d5725f
-135.4505925,59.229408,78,Deishu Dr,,,,,,,07f66915caa1dfe4
-135.4507475,59.2296228,77,Deishu Dr,,,,,,,8e990b01fb6abd3c
-135.451087,59.2296249,73,Deishu Dr,,,,,,,d08afc05df5064db
-135.4509198,59.2294081,74,Deishu Dr,,,,,,,a271061c7868d660
-135.4511871,59.2302877,40,Deishu Dr,,,,,,,5cf25d550a848804
-135.4510835,59.2300493,37,Deishu Dr,,,,,,,d2fff77a8872ae48
-135.4507454,59.2300489,29,Deishu Dr,,,,,,,64b9020190603f37
-135.4503928,59.2300466,25,Deishu Dr,,,,,,,bc9e55b0816b7b60
-135.4500249,59.2300475,17,Deishu Dr,,,,,,,0cba4fc348d4d871
-135.4493457,59.230052,5,Deishu Dr,,,,,,,d9577d0d8e476940
-135.4492156,59.2302751,4,Deishu Dr,,,,,,,1fd88ae32613276a
-135.4495845,59.230271,8,Deishu Dr,,,,,,,b2505b29fb2a2ebf
-135.4498606,59.2302639,14,Deishu Dr,,,,,,,eb3d3fb3b2be75fa
-135.4502065,59.2302727,22,Deishu Dr,,,,,,,98af79a01e0def13
-135.4505033,59.230266,28,Deishu Dr,,,,,,,f81bccc97af51d0a
-135.4508409,59.2302836,34,Deishu Dr,,,,,,,82a0298a5d4c4c5b
-135.4457857,59.2327853,144,S 2nd Ave,,,,,,,a8c5c1ad47c03881
-135.4446214,59.2326661,153,S 1st Ave,,,,,,,dedfee1dae54a363
-135.4455496,59.2330962,138,S 2nd Ave,,,,,,,9fd4b8083a850aff
-135.4456068,59.2332595,132,S 2nd Ave,,,,,,,dfb411a6ec0e89ae
-135.4455898,59.2333341,130,S 2nd Ave,,,,,,,4b6538138d4f0fec
-135.4455491,59.2334,128,S 2nd Ave,,,,,,,91efe80e89aa3137
-135.4458212,59.2339884,111,S 2nd Ave,,,,,,,4f18184d0728fe6c
-135.4459346,59.2338171,115,S 2nd Ave,,,,,,,5247b2347e420125
-135.4484506,59.2330391,151,S 3rd Ave,,,,,,,532285eadc9c99fb
-135.447384,59.234261,104,S 3rd Ave,,,,,,,461dceabcb2083d8
-135.4472509,59.2342877,225,Willard St,,,,,,,ce26a9e51876a838
-135.4465591,59.2342087,215,Willard St,,,,,,,f4b599a23da0029a
-135.446493,59.2341846,213,Willard St,,,,,,,fec4fa34c2572f71
-135.4463044,59.2341693,211,Willard St,,,,,,,61ed730751f49705
-135.446212,59.2341765,209,Willard St,,,,,,,d4a5b54287edd851
-135.4458726,59.2341931,201,Willard St,,,,,,,efd836d6339e0f92
-135.4457639,59.2348634,205,Main St,,,,,,,727f8513d94cee83
-135.4458683,59.2349593,207,Main St,,,,,,,171ae4915653f243
-135.4460042,59.2349698,209,Main St,,,,,,,4aa1010acd797a8f
-135.4464292,59.2349984,219,Main St,,,,,,,bc81de1aab7854d9
-135.4465858,59.2350134,223,Main St,,,,,,,716af6df57b80905
-135.4462487,59.2351849,214,Main St,,,,,,,6d7f3b97c7264ae0
-135.4460016,59.235165,210,Main St,,,,,,,edc097df6c420a02
-135.4459276,59.2351608,208,Main St,,,,,,,ca6c6bb27a7ad679
-135.4456261,59.2351278,204,Main St,,,,,,,7727f2c7f051945f
-135.4457358,59.2347488,202,Townhouse Pl,,,,,,,9b02235fc95843b4
-135.4460173,59.2347539,210,Townhouse Pl,,,,,,,40da2f81a123e5e6
-135.4460288,59.234608,209,Townhouse Pl,,,,,,,24d0de4a921cd361
-135.4468335,59.2348643,224,Townhouse Pl,,,,,,,095bcf9929dbabd2
-135.4470242,59.2348121,226,Townhouse Pl,,,,,,,53310f427b9ad60e
-135.4471899,59.2348242,230,Townhouse Pl,,,,,,,5dc1dc03e52c17c1
-135.4451013,59.23508,126,Main St,,,,,,,5438ce5ad4522199
-135.4448529,59.235062,122,Main St,,,,,,,f2d77fdefaa0ae47
-135.4447564,59.2350541,118,Main St,,,,,,,8ccb4b79c9a5489f
-135.4446838,59.2350487,116,Main St,,,,,,,f85240dcfc09886c
-135.4441868,59.2350534,108,Main St,,,,,,,d1b35cded2101921
-135.4438581,59.23498,102,Main St,,,,,,,f1aef098e817373e
-135.4434838,59.2349498,22,Main St,,,,,,,2a21fd33484afb76
-135.443346,59.2349379,16,Main St,,,,,,,019b113530532655
-135.4430062,59.2349086,10,Main St,,,,,,,2bc66e279d77e299
-135.4428968,59.2348992,8,Main St,,,,,,,37f7894753473627
-135.4426006,59.2349767,7,N Front St,,,,,,,5be3e0617ee265e4
-135.4419932,59.2351289,10,N Front St,,,,,,,bd593d85e9010194
-135.4422357,59.2347573,2,N Front St,,,,,,,2b257c0c13f8fa70
-135.4450431,59.2348523,117,Main St,,,,,,,093463fb667d43ba
-135.4478048,59.2353106,308,Main St,,,,,,,456bc625c799013e
-135.4479534,59.2353266,310,Main St,,,,,,,7b36a1a7968628bf
-135.4481292,59.2353408,312,Main St,,,,,,,47670852cf0faba5
-135.4484402,59.2354345,318,Main St,,,,,,,66a209750b25058c
-135.4485932,59.2353977,322,Main St,,,,,,,2d570695094e72bc
-135.4489229,59.2354108,332,Main St,,,,,,,f9dae17b34418d16
-135.4487003,59.2360295,24,N 4th Ave,,,,,,,39745d44cc2e99f2
-135.449344,59.2361643,25,N 4th Ave,,,,,,,7d1459c6c62c8444
-135.4494464,59.2354686,402,Main St,,,,,,,c647652c907c372d
-135.4505661,59.2355491,420,Main St,,,,,,,e3358cf95542054c
-135.4508945,59.235574,430,Main St,,,,,,,78fc9d49a1347713
-135.4515065,59.2356209,502,Main St,,,,,,,8d70fa101a638987
-135.4516522,59.2353265,501,Main St,,,,,,,ca5ca1967d618cc7
-135.4526739,59.2358328,524,Main St,,,,,,,34cec06f5c5aeed5
-135.4527357,59.236393,26,N 6th Ave,,,,,,,c7063195f7b867e5
-135.452332,59.2364799,527,Dalton St,,,,,,,5cc633767df6442d
-135.4518655,59.2364498,519,Dalton St,,,,,,,99df3e39e1aa5b3a
-135.4515299,59.2363799,503,Dalton St,,,,,,,71a0b6219640cd6b
-135.4512045,59.2362726,25,N 5th Ave,,,,,,,8cf01f388e02efce
-135.4505956,59.2366432,426,Dalton St,,,,,,,6acb32bf1ab028cf
-135.4501244,59.2366547,418,Dalton St,,,,,,,5181ee1a63310382
-135.4497418,59.2367366,412,Dalton St,,,,,,,1ec49c1971d961eb
-135.4541154,59.2358396,614,Main St,,,,,,,feeee9664c2b0519
-135.4560636,59.2356052,715,Main St,,,,,,,f28e96e6398668b1
-135.4590182,59.2360006,836,Main St,,,,,,,f92ff283a9a98475
-135.4591758,59.2359887,838,Main St,,,,,,,fc9ca844d7b29a02
-135.4593182,59.2359424,842,Main St,,,,,,,7cdac5261700d8b9
-135.4597622,59.2359464,847,Main St,,,,,,,fd82cdec59f5b126
-135.4597472,59.2358996,848,Main St,,,,,,,4dd92f14125e7e01
-135.4570271,59.2364689,755,Union St,,,,,,,83cb9d293acb1511
-135.4589838,59.2374938,113,Allen Rd,,,,,,,fc9fd9e05e5f39f6
-135.458961,59.2382396,215,Allen Rd,,,,,,,800066b84ba6ea29
-135.4589544,59.2384962,223,Allen Rd,,,,,,,51b4032674b9e211
-135.4582053,59.2385235,220,Allen Rd,,,,,,,11168a78b6dd7af9
-135.4590104,59.2386778,231,Allen Rd,,,,,,,db68bacd1b8587dd
-135.4582966,59.2388013,8,Helms Loop,,,,,,,cf9c6800af87d660
-135.4580457,59.2388294,14,Helms Loop,,,,,,,4688857071e10144
-135.4573833,59.2389448,22,Helms Loop,,,,,,,a8fd1d3c2596a9d3
-135.4576628,59.2392816,19,Helms Loop,,,,,,,b81e7a5f24f4aba1
-135.4583774,59.2391072,7,Helms Loop,,,,,,,f6cf3741d64841c7
-135.459156,59.2390171,245,Allen Rd,,,,,,,a0f7817c51fa0647
-135.4563683,59.239182,32,Helms Loop,,,,,,,a33677d9a18e9a7c
-135.4552157,59.2389756,44,Helms Loop,,,,,,,9f66952dc47cd2e6
-135.4567846,59.2400213,52,Helms Loop,,,,,,,3137881ccd1397ad
-135.4572735,59.2400182,62,Helms Loop,,,,,,,e95092a627e4f3ec
-135.457327,59.2398013,61,Helms Loop,,,,,,,5f861f73202a1053
-135.4580293,59.239726,75,Helms Loop,,,,,,,06bd69d2140d2efb
-135.4583899,59.2396725,79,Helms Loop,,,,,,,e51fbcf34e6ab1d1
-135.4585012,59.2400982,82,Helms Loop,,,,,,,ea46f0faa9e58f51
-135.4594501,59.2394892,265,Allen Rd,,,,,,,0a8cb191d2caa7ae
-135.4508686,59.2374711,503,Union St,,,,,,,6fa9eaa7c6d3c5fa
-135.4503644,59.2374216,431,Union St,,,,,,,20b9e93d82a6a5b5
-135.4504495,59.2369653,118,N 5th Ave,,,,,,,44878c8068bac66c
-135.4485506,59.2369547,126,N 4th Ave,,,,,,,38fbd940e7fbcba0
-135.4483454,59.2372485,329,Union St,,,,,,,d3755c85f21fb42e
-135.4475216,59.2371741,315,Union St,,,,,,,8c62a63ea00222ff
-135.4473246,59.2371452,309,Union St,,,,,,,45aa50c2edbe5b5b
-135.4469368,59.2371022,131,N 3rd Ave,,,,,,,77246ba65211e3bf
-135.4463865,59.2362674,230,Dalton St,,,,,,,1da46161ba59cd6c
-135.4474754,59.2364326,308,Dalton St,,,,,,,e528c2ad29d3d735
-135.4477495,59.2365893,119,N 3rd Ave,,,,,,,e86b97966d05d250
-135.4481005,59.2364162,320,Dalton St,,,,,,,29f55b65d5391bdf
-135.4434406,59.2356682,101,Dalton St,,,,,,,a2bb39b10a1b6c53
-135.4436585,59.2356143,103,Dalton St,,,,,,,b327298b73925f23
-135.4441064,59.2357047,113,Dalton St,,,,,,,3afa26ef4d9db2fa
-135.4448956,59.2356886,22,N 2nd Ave,,,,,,,8bb09c51224a35b1
-135.444659,59.2355763,20,N 2nd Ave,,,,,,,3111478d5f71984a
-135.4449325,59.2355385,18,N 2nd Ave,,,,,,,d2c05ed76453f17a
-135.4450783,59.2352933,8,N 2nd Ave,,,,,,,504df7ef947d7e83
-135.4451244,59.2351685,6,N 2nd Ave,,,,,,,0f28820636f94bd5
-135.4456068,59.2353487,11,N 2nd Ave,,,,,,,5dfa24f2b8131c8f
-135.4454201,59.2353968,13,N 2nd Ave,,,,,,,89ff1b7fd2bc205b
-135.4454036,59.2354555,15,N 2nd Ave,,,,,,,fd31784930f9a5e8
-135.4459341,59.2359747,217,Dalton St,,,,,,,aa592fb68e819ef1
-135.4430864,59.2367582,103,Union St,,,,,,,ca1ce2cb597c9e1c
-135.4431537,59.2364,116,N 2nd Ave,,,,,,,7aa31ebb363fae83
-135.4438853,59.2366398,109,Union St,,,,,,,1272415ceba3490a
-135.4438315,59.2368821,119,Union St,,,,,,,5c02fa4d95bdff21
-135.4445195,59.2368043,132,N 2nd Ave,,,,,,,767216c99c144f13
-135.4445752,59.2366403,120,N 2nd Ave,,,,,,,6ad13f48ae4d1104
-135.444998,59.2366332,121,N 2nd Ave,,,,,,,9d5f9478df450718
-135.4450341,59.2365143,117,N 2nd Ave,,,,,,,e4ce83c02cea7017
-135.4453732,59.2369895,203,Union St,,,,,,,2199a8b8ebbbfdc0
-135.4460135,59.2370158,219,Union St,,,,,,,8cef39b74061f35a
-135.44659,59.2381539,229,N 3rd Ave,,,,,,,ab4a24d3b93e8bda
-135.4466298,59.237989,221,N 3rd Ave,,,,,,,3c4f99858277f94d
-135.4468537,59.2382666,311,View St,,,,,,,c49c98a311ab1839
-135.4467813,59.2385601,304,View St,,,,,,,c0e4a3ecf79a6188
-135.4471954,59.2382962,315,View St,,,,,,,cfd3b80ea1400911
-135.4475031,59.2382379,317,View St,,,,,,,eae7c076b8fe55b5
-135.4478151,59.2383303,329,View St,,,,,,,71d519c413caa2be
-135.445907,59.2385409,302,Lynnvue Dr,,,,,,,a03cff8a55dff00a
-135.4464597,59.2386878,307,Lynnvue Dr,,,,,,,d80d02ab97048a0b
-135.446416,59.23883,311,Lynnvue Dr,,,,,,,dfec293551750008
-135.4459422,59.2388043,314,Lynnvue Dr,,,,,,,53d2235011fd891d
-135.4459008,59.2389329,320,Lynnvue Dr,,,,,,,8a1626350040ed07
-135.4465532,59.239083,321,Lynnvue Dr,,,,,,,f805adb5db695458
-135.4464045,59.239204,327,Lynnvue Dr,,,,,,,5990c8351a35d71b
-135.4457845,59.2391205,324,Lynnvue Dr,,,,,,,965e85f26d25a46a
-135.4455702,59.2391978,330,Lynnvue Dr,,,,,,,be8693c14da7d25e
-135.4458084,59.2393382,332,Lynnvue Dr,,,,,,,937fe8754dcf498d
-135.4463923,59.2393804,333,Lynnvue Dr,,,,,,,2f03c7c144d88f5d
-135.4464415,59.2394877,339,Lynnvue Dr,,,,,,,89737b55b9499036
-135.4457935,59.2395332,338,Lynnvue Dr,,,,,,,436d26cbe28fe3e5
-135.4465386,59.2399325,343,Lynnvue Dr,,,,,,,c1d754a3b8cc0181
-135.4462314,59.2399699,345,Lynnvue Dr,,,,,,,0d27bdaf60259c21
-135.4457949,59.2399425,349,Lynnvue Dr,,,,,,,91aeeb901d01d56a
-135.4453301,59.239645,362,Lynnvue Dr,,,,,,,c6253a7acdc46e9f
-135.4450173,59.2395881,372,Lynnvue Dr,,,,,,,7d48ef24600159ce
-135.444912,59.2394139,376,Lynnvue Dr,,,,,,,920a14154abcadb0
-135.4445902,59.2392842,327,N 2nd Ave,,,,,,,d8fffb1a44dbf7c7
-135.444631,59.2390273,325,N 2nd Ave,,,,,,,bb1dde670312355d
-135.4445886,59.2388883,323,N 2nd Ave,,,,,,,8f9d68a0851570d6
-135.4445082,59.2386716,315,N 2nd Ave,,,,,,,3de96c29af22a9b4
-135.4444988,59.2384648,307,N 2nd Ave,,,,,,,51aebf2dd092ccfc
-135.4435002,59.2389141,6,Lutak Rd,,,,,,,8f7046176281acde
-135.4424644,59.2386263,319,N 1st Ave,,,,,,,6ec216072b9328bc
-135.441585,59.2387439,322,N 1st Ave,,,,,,,a492169664298702
-135.4412781,59.2390788,340,N 1st Ave,,,,,,,ef45dd5234ece526
-135.4408456,59.2394059,350,N 1st Ave,,,,,,,c5686c7da9a14f8b
-135.440487,59.2396447,366,N 1st Ave,,,,,,,2e97b359dcd7b6e0
-135.4409549,59.2397765,363,N 1st Ave,,,,,,,82d456f5ab2e2ca3
-135.4403068,59.2381508,317,N Front St,,,,,,,fbad88eb1a75a582
-135.4494877,59.2377229,414,Union St,,,,,,,e31868cdf4553f45
-135.4497747,59.2377459,420,Union St,,,,,,,e402d8d575ede6ef
-135.4489053,59.2372604,131,N 4th Ave,,,,,,,ec0e8a93dd2d6f3d
-135.4494535,59.2373165,417,Union St,,,,,,,905048dc6aff62d6
-135.4489573,59.2370523,127,N 4th Ave,,,,,,,1f9428a3e15dbd3d
-135.4517564,59.2368714,514,Dalton St,,,,,,,ecf70f43e60c485d
-135.4520742,59.2369441,522,Dalton St,,,,,,,7dd02241d6fe3706
-135.4523861,59.2371164,116,N 6th Ave,,,,,,,062a2218ca1bff13
-135.4529347,59.2376203,607,Union St,,,,,,,d913242ea1f1989e
-135.4534503,59.2376282,613,Union St,,,,,,,d45de3d543961624
-135.4538409,59.2374348,115,N 6th Ave,,,,,,,2c93e40570a44bad
-135.452617,59.2382315,600,Union St,,,,,,,5fd7ac13a46f9c50
-135.4448525,59.2373128,205,N 2nd Ave,,,,,,,21147e2c2f021bfd
-135.4448814,59.2374963,211,N 2nd Ave,,,,,,,0fc18b69fa54a475
-135.4447936,59.2377614,225,N 2nd Ave,,,,,,,0e200c8ecf9cbf59
-135.4454119,59.2381399,215,View St,,,,,,,ccb38ecbdb65ea0a
-135.4461377,59.2381121,228,N 3rd Ave,,,,,,,af926839cf63c13f
-135.4461266,59.2378971,218,N 3rd Ave,,,,,,,06967c3a468d8a79
-135.4461782,59.2375694,215,N 3rd Ave,,,,,,,cc4df7bd0213e544
-135.4456472,59.2375311,217,N 3rd Ave,,,,,,,e0a528b510893196
-135.4452725,59.2374127,219,N 2nd Ave,,,,,,,ec8fcdcb00072361
-135.4477625,59.2375721,320,Union St,,,,,,,0d92914939c9b19f
-135.4468566,59.2376096,213,N 3rd Ave,,,,,,,7b5d4405a35d3301
-135.4486231,59.2381351,223,N 4th Ave,,,,,,,1be66f403ecabebc
-135.4487585,59.2383388,227,N 4th Ave,,,,,,,04b47e1376ac9014
-135.4492553,59.2382612,225,N 4th Ave,,,,,,,6cc570f919ad2cc2
-135.4412238,59.2370523,209,N Front St,,,,,,,fc2e0295bed7b067
-135.440792,59.2374652,219,N Front St,,,,,,,4714fe6375f44825
-135.4415371,59.2368019,6,Union St,,,,,,,0b3f7d5ffc3eed1e
-135.4420334,59.2372686,220,N 1st Ave,,,,,,,7847fd5c42dfed5b
-135.4411884,59.2363011,122,N Front St,,,,,,,7cd143c37ace873a
-135.4417347,59.2364052,123,N Front St,,,,,,,a57884849146759a
-135.4441448,59.2377618,222,N 2nd Ave,,,,,,,b2d51d27fc8aa87f
-135.4424346,59.2376059,224,N 1st Ave,,,,,,,43de84549691345b
-135.4431503,59.2370876,106,Union St,,,,,,,c463e17e4537eee3
-135.4475635,59.2397136,404,N 4th Ave,,,,,,,89c9e54fd3e37b53
-135.4477844,59.2399959,410,N 4th Ave,,,,,,,3eecbd9306ec26d6
-135.4475737,59.2414868,510,N 4th Ave,,,,,,,23ac96d47dbf5a15
-135.4453863,59.2414763,228,W Mathias Ave,,,,,,,1da84deec5b5daae
-135.4450021,59.2413651,224,W Mathias Ave,,,,,,,b278698fcfc4a53b
-135.4444233,59.2412776,212,W Mathias Ave,,,,,,,5a8b6eaf4066b948
-135.4439243,59.2413769,509,Young Rd,,,,,,,34a1966f9639db5f
-135.4442646,59.2408471,453,Young Rd,,,,,,,07c7d3a63a077e35
-135.4434655,59.2405784,448,Young Rd,,,,,,,8a5900a3ce57ac1f
-135.4434167,59.2404589,440,Young Rd,,,,,,,9d60e5f2af5a9a83
-135.4439068,59.2402275,435,Young Rd,,,,,,,cfa1f22b62c64e1d
-135.4426534,59.2399598,25,Lutak Rd,,,,,,,61e81efc29b2c53d
-135.4418603,59.2402822,45,Lutak Rd,,,,,,,18be2e7cd3543200
-135.4426531,59.2413504,4,E Mathias Ave,,,,,,,c579101719ffda86
-135.4433101,59.2412669,2,E Mathias Ave,,,,,,,cf19f3f38d1f7091
-135.4442274,59.2417536,513,Young Rd,,,,,,,4e491f5a386fecbb
-135.440554,59.242169,48,E Barnett Dr,,,,,,,4bfadab5d7711b78
-135.4392558,59.2423409,70,E Barnett Dr,,,,,,,4df595edc35f75d6
-135.437683,59.2423325,111,E Barnett Dr,,,,,,,9679b062091bd7b1
-135.437931,59.2426131,112,E Barnett Dr,,,,,,,6ecddc5c0badf8d2
-135.4380052,59.2422736,103,E Barnett Dr,,,,,,,9e1cc69342615b36
-135.4404153,59.2408887,71,Lutak Rd,,,,,,,49c3adb226875851
-135.4396794,59.239999,380,N 1st Ave,,,,,,,6441dcd9043bedf0
-135.4317007,59.2219835,172,Mt. Riley Rd,,,,,,,8e51ecfbbff8b7a6
-135.4305267,59.2221027,186,Mt. Riley Rd,,,,,,,94db9151a048e5dd
-135.4279249,59.2232813,258,Mt. Riley Rd,,,,,,,c21fc2aec99537d1
-135.4379767,59.2091696,1055,Small Tracts Rd,,,,,,,ed97f3875cfabbc1
-135.4366107,59.2075646,1148,Small Tracts Rd,,,,,,,d448c3503b8c2f80
-135.4381419,59.210355,1049,Small Tracts Rd,,,,,,,e97c77c5bd28b933
-135.4439001,59.2242621,323,Tower Rd,,,,,,,a70a12dc25ebac92
-135.4478912,59.2339376,111,S 3rd Ave,,,,,,,4a6eaa291d61dc22
-135.4478488,59.2342865,103,S 3rd Ave,,,,,,,a4bda4f283ce6f7a
-135.4499686,59.2352131,409,Main St,,,,,,,977471dd6ab8c71e
-135.4447489,59.2244024,337,Tower Rd,,,,,,,7b09cbd2060492dd
-135.4444579,59.2248949,330,Tower Rd,,,,,,,c3f3cf6a6d89d6f4
-135.4435302,59.2250632,308,Tower Rd,,,,,,,e5f851ee5da6fafe
-135.4451822,59.225416,376,Mud Bay Rd,,,,,,,6b0c8da8f335402f
-135.4483042,59.2253097,322,Bartlett Blvd,,,,,,,9e12f7994f826762
-135.4397054,59.2215012,592,FAA Rd,,,,,,,c6060e40730fabf9
-135.4405847,59.2218064,540,FAA Rd,,,,,,,529359e036ac8b7e
-135.4403218,59.2206834,605,FAA Rd,,,,,,,22ef54c2f42e65b7
-135.4396507,59.2202652,633,FAA Rd,,,,,,,b726a18fdc3ec785
-135.4384051,59.2204856,606,FAA Rd,,,,,,,7fc93978f289fb29
-135.438213,59.2200491,642,FAA Rd,,,,,,,fff5ac691891d61e
-135.4387757,59.2197381,649,FAA Rd,,,,,,,9be4d7e945630ab9
-135.438547,59.2193108,665,FAA Rd,,,,,,,8422788e2ed46cea
-135.437779,59.219145,675,FAA Rd,,,,,,,aa1ec90158af1737
-135.4423936,59.2237518,453,FAA Rd,,,,,,,46e910c7b4c4332f
-135.4445666,59.2253582,332,Tower Rd,,,,,,,b65379b0c5bf7d6e
-135.446409,59.2266849,324,Mud Bay Rd,,,,,,,8fee38c7608d1cc8
-135.4516259,59.2299041,52,Deishu Dr,,,,,,,cdfa6484d4224f3a
-135.4471182,59.228996,301,S 2nd Ave,,,,,,,3270bb9e53d53f30
-135.4424502,59.2295476,11,Mud Bay Rd,,,,,,,1e219f86fde40548
-135.4425824,59.2294479,15,Mud Bay Rd,,,,,,,9f1da04ac35767d4
-135.4427428,59.2293564,17,Mud Bay Rd,,,,,,,c25c8f14c46de532
-135.4425911,59.2296198,27,Haines Hwy,,,,,,,df95e1624075a7a0
-135.442837,59.2297135,31,Haines Hwy,,,,,,,5dda736aaf45894e
-135.4427276,59.2289833,38,Mud Bay Rd,,,,,,,e9e619ced9225f74
-135.4376278,59.2232134,452,New Hart Rd,,,,,,,91f649411fe10e6a
-135.4387171,59.2238369,420,New Hart Rd,,,,,,,8b164add132b4a35
-135.4392885,59.2240435,414,New Hart Rd,,,,,,,8aabe5a883148f1a
-135.4381687,59.2230752,445,New Hart Rd,,,,,,,09ffea397eee1e9a
-135.4382134,59.224188,437,Matrix Dr,,,,,,,dab200a3a8f1c2bd
-135.4388278,59.2244126,427,Matrix Dr,,,,,,,73128492f6047cf7
-135.4409146,59.2212694,587,FAA Rd,,,,,,,9793066f44f4dafa
-135.4524934,59.235362,527,Main St,,,,,,,d6a1b1168da59c35
-135.4444213,59.2261849,4,Ft. Seward Dr,,,,,,,0c2a976b791880e1
-135.4446438,59.2262931,5,Ft. Seward Dr,,,,,,,ce2d022cd53b9c54
-135.4449753,59.2264583,6,Ft. Seward Dr,,,,,,,c9cdc026c7c8a2b8
-135.4451945,59.2265751,7,Ft. Seward Dr,,,,,,,0fa37df2ce71499c
-135.4454929,59.2267208,8,Ft. Seward Dr,,,,,,,32364f4d63581a51
-135.4456549,59.226807,9,Ft. Seward Dr,,,,,,,7500a727c873e63c
-135.4459274,59.2269476,10,Ft. Seward Dr,,,,,,,f875958b3cf704a6
-135.4460901,59.2270295,11,Ft. Seward Dr,,,,,,,124b64138c6289e8
-135.4439592,59.225947,2,Ft. Seward Dr,,,,,,,6a01e634134f4751
-135.4441248,59.2260313,3,Ft. Seward Dr,,,,,,,22743cda04872799
-135.4436163,59.2257782,1,Ft. Seward Dr,,,,,,,cbb901ed1f663316
-135.4433546,59.2256381,27,Ft. Seward Dr,,,,,,,5f272f033fb6e1eb
-135.4448159,59.2279498,14,Ft. Seward Dr,,,,,,,f5e155de09ec728d
-135.445708,59.2275339,13,Ft. Seward Dr,,,,,,,601c831a3dab730f
-135.446084,59.2273625,12,Ft. Seward Dr,,,,,,,d00c4afb446daccf
-135.4466182,59.2272936,208,FAA Rd,,,,,,,4feb137239d9e885
-135.4560289,59.2294799,512,Chilkoot St,,,,,,,af980cba924f39a1
-135.4568582,59.2294865,511,Chilkoot St,,,,,,,374875e8a4d123d7
-135.4560776,59.2300663,434,Chilkoot St,,,,,,,9c7892bcecb182a0
-135.4560967,59.2304025,422,Chilkoot St,,,,,,,3ab62aa84fd29d85
-135.4557942,59.2306421,407,Chilkoot Loop,,,,,,,37b2a59017febb26
-135.4425571,59.2256523,26,Ft. Seward Dr,,,,,,,44f8399d952b5393
-135.441304,59.2263059,24,Ft. Seward Dr,,,,,,,ff8f4efd5e74a251
-135.4410446,59.2264944,23,Ft. Seward Dr,,,,,,,5d6e699df45fe26d
-135.441064,59.2267653,22,Ft. Seward Dr,,,,,,,b996307aacf3fd26
-135.4424392,59.2274612,18,Ft. Seward Dr,,,,,,,46856a43c70a953a
-135.4427561,59.2276303,17,Ft. Seward Dr,,,,,,,52d6bfb66e1659d9
-135.4445315,59.2280845,15,Ft. Seward Dr,,,,,,,03ebf89bbd754100
-135.4350248,59.2050795,1270,Small Tracts Rd,,,,,,,b54dcf9518725842
-135.434731,59.204089,1307,Small Tracts Rd,,,,,,,2995bee8a92e0714
-135.4336854,59.2047598,1294,Small Tracts Rd,,,,,,,08ccf2bea016d430
-135.4345277,59.2058096,1266,Small Tracts Rd,,,,,,,a428f3fc50db5258
-135.4370428,59.2046997,1227,Small Tracts Rd,,,,,,,54e05ee1b84b666e
-135.4379072,59.205395,1223,Small Tracts Rd,,,,,,,06ca9e2d32f01c71
-135.4395569,59.2082851,1095,Small Tracts Rd,,,,,,,7142935726dfde5f
-135.4380593,59.2077449,1151,Small Tracts Rd,,,,,,,0e94cc2141285fc1
-135.4420774,59.206835,1138,Mud Bay Rd,,,,,,,9a4e9fd6de37b6f9
-135.441674,59.2066996,1146,Mud Bay Rd,,,,,,,d2980e0fbbb5f8ae
-135.4434699,59.2073839,1068,Mud Bay Rd,,,,,,,e75494adb8a341de
-135.4441144,59.2083038,1058,Mud Bay Rd,,,,,,,35b82783c5c42272
-135.4456752,59.2085119,1047,Mud Bay Rd,,,,,,,46ce40807cb6a004
-135.4404634,59.2070942,1158,Mud Bay Rd,,,,,,,53426e105bbabc64
-135.4394348,59.2064799,1150,Mud Bay Rd,,,,,,,070002e7ac467899
-135.4377297,59.2064689,1185,Small Tracts Rd,,,,,,,6ea8a4bc0f66d709
-135.4405679,59.2067653,1154,Mud Bay Rd,,,,,,,d9b895b973a9bd3f
-135.4409263,59.2065902,1152,Mud Bay Rd,,,,,,,870d2725106efedd
-135.4457777,59.2089735,1021,Mud Bay Rd,,,,,,,3e8532f234dbdee3
-135.4462329,59.2092462,1012,Mud Bay Rd,,,,,,,78162a553027f3c0
-135.4471035,59.2096694,983,Mud Bay Rd,,,,,,,235c3ec929f9d797
-135.4446121,59.2095987,1014,Mud Bay Rd,,,,,,,bc8dfe41925c7256
-135.4435902,59.2099594,52,Chilkat Trails Rd,,,,,,,3dabc51e36053128
-135.4453079,59.210166,1000,Mud Bay Rd,,,,,,,71acf4ab1e38e1a2
-135.4451783,59.210535,129,Chilkat Trails Rd,,,,,,,3f0235f865f6ff2b
-135.4464629,59.2104393,974,Mud Bay Rd,,,,,,,8994157e4595c1a1
-135.4470949,59.2110366,940,Mud Bay Rd,,,,,,,13f0b62a5c9b7694
-135.4483277,59.2119381,908,Mud Bay Rd,,,,,,,bf335fed894f43b7
-135.4422184,59.2161012,734,Small Tracts Rd,,,,,,,677f323be0467677
-135.4429588,59.2164997,722,Small Tracts Rd,,,,,,,ec48a2661566559e
-135.4456585,59.2146365,781,Small Tracts Rd,,,,,,,0cb5f2134a729549
-135.4446534,59.2133236,833,Small Tracts Rd,,,,,,,abe1e250cfbd2c5a
-135.4446541,59.2138602,817,Small Tracts Rd,,,,,,,a939c139d5c92b15
-135.4404515,59.2120115,919,Small Tracts Rd,,,,,,,dabb93f605ddc22f
-135.4403109,59.2128211,908,Small Tracts Rd,,,,,,,ece57987dfca984f
-135.4411166,59.213189,840,Small Tracts Rd,,,,,,,bf1223c1d1db1b01
-135.4474607,59.2133687,50,McPhetres Rd,,,,,,,7af4d82e61bb41ff
-135.4484621,59.2136456,836,Mud Bay Rd,,,,,,,2c2d69701c689591
-135.4420657,59.209249,49,Chilkat Trails Rd,,,,,,,d4d3c8b571bc3ea8
-135.4426345,59.2089541,39,Chilkat Trails Rd,,,,,,,23c2368839b2739f
-135.4417282,59.210684,93,Chilkat Trails Rd,,,,,,,da80dacc29805b0d
-135.4406236,59.2102999,73,Chilkat Trails Rd,,,,,,,787e2190621b1573
-135.4413296,59.2099246,67,Chilkat Trails Rd,,,,,,,4ee0d78d82cbc9a3
-135.4427712,59.2098898,54,Chilkat Trails Rd,,,,,,,772801531f2d5151
-135.4294867,59.2025425,1406,Mud Bay Rd,,,,,,,839f8821eb2ec13a
-135.4355044,59.2072926,1162,Small Tracts Rd,,,,,,,935f1d01b5085dea
-135.4383304,59.2073808,1159,Small Tracts Rd,,,,,,,030c8674a7d71131
-135.4347752,59.2088111,1062,Small Tracts Rd,,,,,,,dcf5df476d93c6c7
-135.4363013,59.2082966,1082,Small Tracts Rd,,,,,,,2f3e61b314faf93b
-135.4362853,59.2104977,1046,Small Tracts Rd,,,,,,,70a1ab3e7fc98f5f
-135.4365565,59.2110619,1028,Small Tracts Rd,,,,,,,9c62fc5920f93726
-135.4376401,59.2110113,1019,Small Tracts Rd,,,,,,,c56141fcb96f1004
-135.4363765,59.2118469,990,Small Tracts Rd,,,,,,,4e197a64465afd68
-135.4398105,59.2114113,1017,Small Tracts Rd,,,,,,,f098abc35f1f9cd6
-135.438005,59.2116345,1001,Small Tracts Rd,,,,,,,01f911a24add7328
-135.443991,59.2123454,857,Small Tracts Rd,,,,,,,05e7c3cf14cfcc08
-135.4439648,59.2114951,861,Small Tracts Rd,,,,,,,e26393e806d2a554
-135.4433159,59.2169394,706,Small Tracts Rd,,,,,,,aee48f5956e049b9
-135.4432216,59.217542,668,Small Tracts Rd,,,,,,,626c9b297a9fd455
-135.4451561,59.2174333,671,Small Tracts Rd,,,,,,,02b1502166209c96
-135.4455915,59.217791,661,Small Tracts Rd,,,,,,,b70be651a692bc15
-135.444812,59.2187003,6,Alder Ct,,,,,,,cf331daace59c62a
-135.4434722,59.2186395,652,Small Tracts Rd,,,,,,,d596866c5252d0c3
-135.44181,59.2191152,628,Small Tracts Rd,,,,,,,aee755ffaf279905
-135.4463389,59.2156534,753,Small Tracts Rd,,,,,,,109dbaf349553f4c
-135.4473409,59.2149214,769,Small Tracts Rd,,,,,,,4067e6029425ef8e
-135.4464908,59.2158588,749,Small Tracts Rd,,,,,,,64a7b7dd0f5db026
-135.4485422,59.2144765,798,Mud Bay Rd,,,,,,,31925820622e0099
-135.4486628,59.2142554,806,Mud Bay Rd,,,,,,,b41689dbcd2535df
-135.4462093,59.2168027,715,Small Tracts Rd,,,,,,,7de5c701704c0da6
-135.4318163,59.2032396,1399,Mud Bay Rd,,,,,,,18f96f1a5d0cd536
-135.467197,59.2251547,398,River Rd,,,,,,,bdce1360d67bbd67
-135.4588471,59.2225885,216,River Rd,,,,,,,e7b2ddb1345e42d5
-135.4627206,59.2236401,324,River Rd,,,,,,,f6db3220f6186432
-135.4584769,59.2221966,210,River Rd,,,,,,,58a18eab431c6efb
-135.4555028,59.220792,150,River Rd,,,,,,,a4f63b52f2327ed7
-135.4542797,59.220427,122,River Rd,,,,,,,bbf6ca084cb49378
-135.4525002,59.2197582,84,River Rd,,,,,,,f29e4f6c20789134
-135.4519148,59.219893,76,River Rd,,,,,,,363832304451497e
-135.4447459,59.2132402,8,McPhetres Rd,,,,,,,5a14f687b17c3b8a
-135.4449349,59.2204461,587,Small Tracts Rd,,,,,,,9922d26a9e1514e9
-135.4410089,59.2259606,209,Tower Rd,,,,,,,4d99209fe63392de
-135.4393952,59.2168517,122,Bear Trail Ln,,,,,,,9ca79a4d2ad866e9
-135.4511659,59.2277789,502,Major Rd,,,,,,,4ec2be53cf33b85b
-135.4656845,59.2315546,328,West Fair Dr,,,,,,,4c5ba8f883121f0e
-135.4671591,59.2312539,343,West Fair Dr,,,,,,,59c64bd2dc96a37c
-135.4666225,59.2318308,307,West Fair Dr,,,,,,,273ab580351c15af
-135.465208,59.2328393,286,West Fair Dr,,,,,,,fcc125a389ef1517
-135.4661612,59.2337284,259,West Fair Dr,,,,,,,79d150b941f88f87
-135.4658134,59.2344886,227,West Fair Dr,,,,,,,df43bec3d676d77a
-135.4657761,59.2346199,221,West Fair Dr,,,,,,,205c638ad8fdb89e
-135.4660129,59.2351601,211,West Fair Dr,,,,,,,574582803f5110f3
-135.4422374,59.2300348,12,Haines Hwy,,,,,,,507edce61ec9d847
-135.4428697,59.2303243,32,Haines Hwy,,,,,,,35f179bc08bf3b20
-135.4434005,59.2305881,62,Haines Hwy,,,,,,,2bd3bdecdb90acc1
-135.4439361,59.2300242,55,Haines Hwy,,,,,,,88e65876f9014538
-135.4453774,59.230151,270,S 2nd Ave,BLDG A,,,,,,b522be821d8d30e9
-135.4457945,59.2298389,270,S 2nd Ave,BLDG C,,,,,,e32da7a8c4e01bb4
-135.4461771,59.2300676,270,S 2nd Ave,BLDG B,,,,,,af5171869bef26a1
-135.4459028,59.2303986,270,S 2nd Ave,BLDG E,,,,,,dbf6c4c8ae3fd31f
-135.4442221,59.2320521,33,Mission St,,,,,,,5832acdac73631bd
-135.4415897,59.2280885,34,Blacksmith St,,,,,,,23ed16dbb90bd38c
-135.4410275,59.2289345,5,Totem Rd,,,,,,,b54c4882e1960597
-135.4405313,59.2286572,15,S Beach Rd,,,,,,,33208546fe7a614b
-135.4406462,59.2276315,38,Portage St,,,,,,,8787212951846f92
-135.4398255,59.2280525,12,Portage St,,,,,,,891ec81ddf7b36ba
-135.4400536,59.2279342,20,Portage St,,,,,,,37f29691124ee154
-135.4402791,59.2278066,24,Portage St,,,,,,,18be59fb5b33d146
-135.4406665,59.2273562,43,Portage St,,,,,,,badc62700dc23912
-135.4396555,59.2278443,17,Portage St,,,,,,,9193e145d7f452b2
-135.4397275,59.2273,32,Tower Rd,,,,,,,1170cd6ad4a57fcd
-135.439922,59.2272353,38,Tower Rd,,,,,,,abb8456510f44112
-135.4400838,59.2271809,40,Tower Rd,,,,,,,f0721978da60690c
-135.4402216,59.227039,46,Tower Rd,,,,,,,a4a9b0233f0313c2
-135.4409606,59.227752,40,Portage St,,,,,,,ca0ae39cbe94f8bb
-135.4394542,59.2276214,21,Portage St,,,,,,,6b9631f5ee7c4c27
-135.4390521,59.2275877,18,Tower Rd,,,,,,,27b4f6ffd1d70ec7
-135.439225,59.2275127,24,Tower Rd,,,,,,,417371b7209066cf
-135.4393026,59.2271693,31,Tower Rd,,,,,,,45b0e09d9da41f12
-135.4396609,59.2270257,39,Tower Rd,,,,,,,0f150c3b7bf4e0b3
-135.4399404,59.2268817,47,Tower Rd,,,,,,,0fec389dee32194d
-135.4383868,59.2266678,29,Tower Rd,,,,,,,3283e094c9934b4a
-135.4368381,59.2268928,117,S Beach Rd,,,,,,,13d054400f227dd8
-135.4359889,59.2266797,121,S Beach Rd,,,,,,,61db9fa445b8731b
-135.4378267,59.2269681,25,Tower Rd,,,,,,,379115c0b3350685
-135.4421598,59.2283616,35,Totem Rd,,,,,,,04b5c89841500fbf
-135.4400987,59.2265626,31,Theater Dr,,,,,,,a84693d018c95f0d
-135.4426514,59.2348781,4,Main St,,,,,,,f3ed65a9721493a6
-135.4637413,59.2356878,900,Main St,,,,,,,6d6385802f1b749b
-135.45385,59.2380287,624,Union St,,,,,,,b20f839aac4bc2d6
-135.4532172,59.2385263,614,Union St,,,,,,,2a8bf2dae9251f47
-135.4450398,59.2369656,201,Union St,,,,,,,491addb9755cdf64
-135.4445626,59.2362806,108,N 2nd Ave,,,,,,,39def8c02d8960b0
-135.4454754,59.2357603,215,Dalton St,,,,,,,7ef94846238f906e
-135.443054,59.235894,22,Dalton St,,,,,,,692fabe1b1b1fa67
-135.4418411,59.2353207,14,N Front St,,,,,,,88558d1309b1479c
-135.4421614,59.2389219,327,N 1st Ave,,,,,,,32c17af33311e31d
-135.4418035,59.2394894,343,N 1st Ave,,,,,,,177b8eefd2eaa14e
-135.4425428,59.2393301,329,N 1st Ave,,,,,,,6bd8b665c3e35744
-135.438135,59.2403011,134,Lutak Rd,,,,,,,8db6cdb92f369d6e
-135.4375963,59.2413608,449,Ocean View St,,,,,,,5883cc0f93780213
-135.4382842,59.2412892,435,Ocean View St,,,,,,,e072a7be7bc715d2
-135.4386524,59.2411518,427,Ocean View St,,,,,,,c9b16f65f7aa0552
-135.4423334,59.2369474,20,Union St,,,,,,,b508214d614bd62f
-135.4435338,59.2371637,112,Union St,,,,,,,3cf3b2f7cd1a4e06
-135.4440311,59.237315,130,Union St,,,,,,,be7f199f55df3578
-135.4429811,59.237327,219,N 1st Ave,,,,,,,ab733f6ca8fc53dc
-135.4438847,59.237498,218,N 2nd Ave,,,,,,,cea2c29a76813a21
-135.4433727,59.2359942,102,Dalton St,,,,,,,4e424c433e3dae32
-135.4431069,59.2361371,118,N 2nd Ave,,,,,,,cf90793c9a20403a
-135.4437505,59.2362414,112,Dalton St,,,,,,,c149be2b250b5388
-135.4572932,59.2379795,758,Union St,,,,,,,a146679ae04bb818
-135.4479183,59.2409841,434,N 4th Ave,9B,,,,,,ebd9ec22e13fb03f
-135.4476352,59.240989,434,N 4th Ave,10B,,,,,,0e64c4f969a890ab
-135.4476353,59.240711,434,N 4th Ave,2B,,,,,,8d157a105fe5ece9
-135.4479152,59.2407063,434,N 4th Ave,1B,,,,,,69208c262745ba06
-135.4471176,59.2409952,434,N 4th Ave,12B,,,,,,5485ea9a9ca57a73
-135.4471181,59.240718,434,N 4th Ave,4B,,,,,,df9ed9a0e0a2e515
-135.4471398,59.2403423,434,N 4th Ave,8B,,,,,,31434aadeb675ee2
-135.4476218,59.2403377,434,N 4th Ave,6B,,,,,,2ccc16570b12344f
-135.4479112,59.2403376,434,N 4th Ave,5B,,,,,,e4aeb4e6711081dd
-135.4487024,59.2402111,435,N 4th Ave,M2,,,,,,1b581ee623802bfa
-135.4491728,59.2402675,435,N 4th Ave,M1,,,,,,83e664bad6aa9e0f
-135.4491773,59.240429,435,N 4th Ave,M3,,,,,,ae6106d1e44e152c
-135.4491997,59.2409756,435,N 4th Ave,M9,,,,,,6bda2b0cc54e0c84
-135.449205,59.2412612,435,N 4th Ave,M13,,,,,,f54c48fba9526829
-135.4486602,59.2409815,435,N 4th Ave,M10,,,,,,0d5b06bb12d9f903
-135.4486963,59.2403822,435,N 4th Ave,M4,,,,,,cef105d714e7e3bd
-135.4491927,59.2408379,435,N 4th Ave,M7,,,,,,2c62e69d2b91cfc7
-135.4491799,59.2406794,435,N 4th Ave,M5,,,,,,17fb0b83ac859349
-135.4486788,59.2412359,435,N 4th Ave,M12,,,,,,0a484d29f887df34
-135.4427866,59.2409446,13,E Mathias Ave,,,,,,,070ee57b95e0ba4e
-135.4431646,59.2409728,7,E Mathias Ave,,,,,,,87b7fd8bb144f3b6
-135.4404317,59.2417234,64,E Mathias Ave,,,,,,,b1203b0fdeff5144
-135.4386972,59.2420199,93,E Barnett Dr,,,,,,,d217f16c1016b7c8
-135.4410932,59.2421136,42,E Barnett Dr,,,,,,,038e58982bce811b
-135.4417642,59.2418525,31,E Barnett Dr,,,,,,,8f90c9c36382b693
-135.4423995,59.2418071,21,E Barnett Dr,,,,,,,9e7913df5e5dceaa
-135.4427703,59.2418539,13,E Barnett Dr,,,,,,,874c36a1f2029e18
-135.4432404,59.2418347,5,E Barnett Dr,,,,,,,41800f410e4372d5
-135.4448954,59.2417544,23,W Barnett Dr,,,,,,,3280cf0d5f4af3ff
-135.4439188,59.2422314,519,Young Rd,,,,,,,bc93ca09ebb6f96d
-135.4416517,59.242188,26,E Barnett Dr,,,,,,,a59b4711faec38ae
-135.4417058,59.2429547,24,E Oslund Dr,,,,,,,1ce23b695abbaa56
-135.440756,59.2425039,49,E Oslund Dr,,,,,,,d59fe274d24b6252
-135.4416026,59.2425443,31,E Oslund Dr,,,,,,,2c7d86cf043389d8
-135.4432498,59.2425064,3,E Oslund Dr,,,,,,,cb2b132ce2f8254f
-135.4423178,59.2425401,21,E Oslund Dr,,,,,,,9ea153ea098e061c
-135.4429663,59.2421063,12,E Barnett Dr,,,,,,,98b204e7a6e40895
-135.4445292,59.2428734,214,W Oslund Dr,,,,,,,97c820af351c9015
-135.4458093,59.2429055,234,W Oslund Dr,,,,,,,4c4fce9ab7822296
-135.4466864,59.2425097,255,W Oslund Dr,,,,,,,41e2c53480f691df
-135.4427789,59.2432007,749,Young Rd,,,,,,,95b5f0219dc1f5df
-135.4389556,59.243216,53,Bjornstad Dr,,,,,,,2bcf12a8f79ed271
-135.4364519,59.2436477,833,E Oslund Dr,,,,,,,e13851e87f9cb0f2
-135.4355897,59.2440959,861,E Oslund Dr,,,,,,,9dfe083ad7029ccd
-135.4386502,59.2425147,100,E Barnett Dr,,,,,,,aefe4c55f5bdc73f
-135.4397203,59.2429356,68,E Oslund Dr,,,,,,,0f092708e7b2c7bc
-135.4374378,59.2446197,860,Muncaster Rd,,,,,,,4c033a737b9d40e4
-135.437828,59.2442617,846,Muncaster Rd,,,,,,,2c432bb9c7d7347a
-135.438868,59.2445756,864,Young Rd,,,,,,,d724e2e0f825f3c1
-135.4394367,59.2442345,831,Muncaster Rd,,,,,,,c5fbdc914b6ce0be
-135.4362401,59.2450618,898,Muncaster Rd,,,,,,,8d2b9291fbfd267d
-135.4356632,59.2453746,908,Muncaster Rd,,,,,,,d7725a1a741015d4
-135.4374578,59.245201,885,Muncaster Rd,,,,,,,3e6b5654d8a09905
-135.4360194,59.2459771,944,Young Rd,,,,,,,16a3da204eda7c39
-135.4350158,59.2463811,960,Young Rd,,,,,,,a34cca9615f7426f
-135.4346259,59.2465959,976,Young Rd,,,,,,,9639fdf9aebaed32
-135.4338342,59.2461844,950,Muncaster Rd,,,,,,,6dabf4a70887d56d
-135.434358,59.2458681,146,Muncaster Dr,,,,,,,3341f5c630b829b0
-135.4332922,59.2465111,968,Muncaster Rd,,,,,,,07112e3f6282d212
-135.4324775,59.2471913,50,Skyline Dr,,,,,,,b3ff4db5297a951c
-135.4393856,59.2450385,877,Young Rd,,,,,,,9d45204e2fb16e78
-135.4415007,59.2442115,811,Young Rd,,,,,,,2efd8b5e472f88ca
-135.4406169,59.2436498,6,Bjornstad Dr,,,,,,,e0298c5ac134e7e7
-135.4391228,59.2437185,816,Muncaster Rd,,,,,,,b105da3f033fe174
-135.4357341,59.2446228,874,Highland Dr,,,,,,,1c049f50bb60a40b
-135.4364344,59.2474828,1005,Young Rd,,,,,,,b3644f76a5fa6c1d
-135.4344875,59.2474873,26,Skyline Dr,,,,,,,cc97c809708c81e0
-135.4365953,59.2479924,1017,Young Rd,,,,,,,b227da1a96d15e2d
-135.4357691,59.2485009,1033,Young Rd,,,,,,,d20644be78a5d7da
-135.435805,59.2486601,1043,Young Rd,,,,,,,0347a19558e8d88d
-135.434915,59.2483577,1034,Young Rd,,,,,,,406e61bcd67c46d6
-135.4334206,59.2482851,29,Skyline Dr,,,,,,,89398632569c2582
-135.4334028,59.2478375,41,Skyline Dr,,,,,,,c59d9d757c3e6a08
-135.4320375,59.2486247,139,Skyline Dr,,,,,,,4f25ced0ce99dc87
-135.4314494,59.248081,101,Skyline Dr,,,,,,,9cf731efe9e9975b
-135.4304027,59.2475107,80,Skyline Dr,,,,,,,1f7359dad6a524a3
-135.4304415,59.2472451,74,Skyline Dr,,,,,,,7848b5ed04a612a4
-135.4307859,59.2468841,66,Skyline Dr,,,,,,,65fb43e6766eb17d
-135.431538,59.2469411,62,Skyline Dr,,,,,,,70b93393610d9d96
-135.4322921,59.2475002,49,Skyline Dr,,,,,,,26a29ce2429388e4
-135.4319263,59.2492352,154,Skyline Dr,,,,,,,0275e0469c641fce
-135.431375,59.2490841,134,Skyline Dr,,,,,,,393a9cd16c4fe958
-135.4367217,59.2460223,939,Young Rd,,,,,,,94763b7fd2ce22c9
-135.4355368,59.2466927,981,Young Rd,,,,,,,2515ab5323118ff1
-135.4343592,59.2494996,187,Skyline Dr,,,,,,,a52c71792a67a5ff
-135.4366108,59.2502592,1108,Young Rd,,,,,,,e09f4ca887cc19c0
-135.4362427,59.2500895,1096,Young Rd,,,,,,,2d031adfe3d81892
-135.4349869,59.2502072,198,Skyline Dr,,,,,,,592e0c21c27c3066
-135.4344407,59.2502311,194,Skyline Dr,,,,,,,3765662a2b876a49
-135.4340196,59.2500229,190,Skyline Dr,,,,,,,d02e2ccd41a1e466
-135.4334352,59.2498881,184,Skyline Dr,,,,,,,530d1066fa2e1b9c
-135.4368306,59.2441944,850,Highland Dr,,,,,,,3efc74bdff9b611a
-135.4350219,59.2443118,879,E Oslund Dr,,,,,,,1085306a864e1fef
-135.4345305,59.2445128,887,E Oslund Dr,,,,,,,798b86825b9709d7
-135.4319608,59.2449682,87,Haven Ct,,,,,,,796673c23199106f
-135.4306662,59.2440836,52,Haven Ct,,,,,,,30909004828b6537
-135.4292499,59.2445273,18,Haven Ct,,,,,,,87c7a2440f57986f
-135.4337571,59.2448404,907,E Oslund Dr,,,,,,,9892d6064dcc380b
-135.4325226,59.2454225,939,E Oslund Dr,,,,,,,599fd74a69237701
-135.4319339,59.2458885,949,E Oslund Dr,,,,,,,19b45ea92e8e889f
-135.4324515,59.2462651,956,Highland Dr,,,,,,,dc58619cc55358d8
-135.4334697,59.245412,926,E Oslund Dr,,,,,,,3dacfaeace63d993
-135.4340556,59.2454873,912,Highland Dr,,,,,,,2185f5886993af57
-135.4344361,59.2453083,908,Highland Dr,,,,,,,89fe6afc82bd9604
-135.4350436,59.2448959,890,E Oslund Dr,,,,,,,e5046903ecb9fe32
-135.4375701,59.2438419,830,Highland Dr,,,,,,,a60b49d5e191bb71
-135.4379238,59.243644,820,Highland Dr,,,,,,,59078ffd939dfd4e
-135.4396281,59.2415983,73,E Mathias Ave,,,,,,,6d93b32faee33bf1
-135.441486,59.24142,46,E Mathias Ave,,,,,,,e9df64fc6e3f9829
-135.4434334,59.2400045,428,Young Rd,,,,,,,5a8546be130d62d3
-135.4548818,59.240625,40,Helms Loop Spur,,,,,,,5a9b5bc8e9bbdc4e
-135.4546101,59.2401354,38,Helms Loop Spur,,,,,,,52f89e371b74f649
-135.4552306,59.2399475,30,Helms Loop Spur,,,,,,,894312c15b17dc3f
-135.4562855,59.2398215,4,Helms Loop Spur,,,,,,,86839a85905747fd
-135.4707266,59.2401506,1043,Comstock Rd,,,,,,,df6a0aeec4ffeaaa
-135.4695954,59.2401501,1025,Comstock Rd,,,,,,,d14c3c8ab54f86b4
-135.4687358,59.2400319,135,N Sawmill Rd,,,,,,,4d99c260b8de01a4
-135.467599,59.245251,499,Allen Rd,,,,,,,35c67b0acb45ff41
-135.4788785,59.240578,40,Piedad Rd,,,,,,,2c2b64c49fd5ac0c
-135.4775665,59.2400969,28,Piedad Rd,,,,,,,544708db8eb56435
-135.4751988,59.2398855,1238,Haines Hwy,,,,,,,c19bbed08a9249ff
-135.4763447,59.2406924,51,Piedad Rd,,,,,,,5bb08ecc1256a8bf
-135.475934,59.2414762,73,Piedad Rd,,,,,,,aa6ae5e19d7eb022
-135.4764904,59.2414316,68,Piedad Rd,,,,,,,fe3c11c53fafeda7
-135.4779625,59.2413386,80,Piedad Rd,,,,,,,ddf3b467cdcffc13
-135.477015,59.2422242,116,Piedad Rd,,,,,,,92f99aa008f354db
-135.4764582,59.2426056,126,Piedad Rd,,,,,,,4d09f70e989209c6
-135.4759763,59.2422505,119,Piedad Rd,,,,,,,d6b5e1799493d1e5
-135.4757841,59.241962,108,Piedad Rd,,,,,,,9a73bc2850ebc3d8
-135.4752212,59.2417862,10,Sunshine Rd,,,,,,,0fa08de1c567ca05
-135.4751491,59.2415348,11,Sunshine Rd,,,,,,,69d07eaa7b57ef8e
-135.4746397,59.2415478,21,Sunshine Rd,,,,,,,880ba2744d460611
-135.4738879,59.2415151,43,Sunshine Rd,,,,,,,09762edf7114947b
-135.472965,59.2419645,54,Sunshine Rd,,,,,,,b5f7b5ff5dec8f9f
-135.4738815,59.2419009,38,Sunshine Rd,,,,,,,c855ddc0605a8302
-135.4744726,59.2418944,14,Sunshine Rd,,,,,,,77dee39758555ee8
-135.4757067,59.2427439,135,Piedad Rd,,,,,,,61043cec260fe641
-135.4737303,59.2428775,65,Moose Ln,,,,,,,615b603385bdef5e
-135.4743399,59.2428493,53,Moose Ln,,,,,,,63f27a10aeb74810
-135.4745803,59.2429104,41,Moose Ln,,,,,,,e8dff7bdc74ed7c1
-135.4749201,59.2428841,29,Moose Ln,,,,,,,d48467705710d87d
-135.4751223,59.2429424,17,Moose Ln,,,,,,,18012c67eb6761bb
-135.473043,59.243214,90,Moose Ln,,,,,,,ce7026c919ffa604
-135.4725387,59.2429048,93,Moose Ln,,,,,,,35d9733d93385b75
-135.4719026,59.2428624,107,Moose Ln,,,,,,,81792d1a8b546a66
-135.4716249,59.2419325,84,Sunshine Rd,,,,,,,19863bd5eff516a5
-135.4707404,59.2415598,95,Sunshine Rd,,,,,,,e58b0fd8421e73b9
-135.4699193,59.2414973,109,Sunshine Rd,,,,,,,d7119523311d05e7
-135.4698083,59.2412324,1028,Vermier St,,,,,,,cfaacd2496a83fc4
-135.4703367,59.2411811,1034,Vermier St,,,,,,,e21a0614ef54b157
-135.4709038,59.2411685,1044,Vermier St,,,,,,,d79baf8dcb27b4ed
-135.4690465,59.241074,1014,Vermier St,,,,,,,486891488fcdaed2
-135.4687414,59.2411014,229,N Sawmill Rd,,,,,,,0e33b69fd5b43b2c
-135.4688024,59.240823,217,N Sawmill Rd,,,,,,,292124fe66359aba
-135.4693513,59.2405289,1014,Comstock Rd,,,,,,,cf89c4813cfe0d9d
-135.4709001,59.2408659,1045,Vermier St,,,,,,,9357a860b4642685
-135.4689202,59.2404965,207,N Sawmill Rd,,,,,,,938896ffeaab8aaf
-135.4690895,59.2395651,101,N Sawmill Rd,,,,,,,f7c29af9fa39d773
-135.4675125,59.2400497,937,Comstock Rd,,,,,,,75f5c2f375714745
-135.4662256,59.2401349,907,Comstock Rd,,,,,,,d0408e90e1ea6fea
-135.4652624,59.2405496,900,Comstock Rd,,,,,,,2f39d719319ae835
-135.4645669,59.2400121,897,Comstock Rd,,,,,,,0c2abf1b282c2936
-135.4662655,59.240675,918,Comstock Rd,,,,,,,d4a91912a3bd3e2b
-135.4675647,59.2406388,940,Comstock Rd,,,,,,,c407078f6fcc1ca6
-135.4637636,59.2401407,871,Comstock Rd,,,,,,,c8ca078b80cabd73
-135.462264,59.2399966,845,Comstock Rd,,,,,,,c93bb7a118ff931b
-135.4617882,59.2401027,835,Comstock Rd,,,,,,,45d296a47ddb6338
-135.4610204,59.2400682,825,Comstock Rd,,,,,,,6af8acf4f3057c17
-135.460632,59.2400476,815,Comstock Rd,,,,,,,d31d60e45d2a5a23
-135.4605652,59.2393911,136,Chestnut Dr,,,,,,,af4d7fd9a9819fa6
-135.4617948,59.2395864,122,Chestnut Dr,,,,,,,072dbf9d4e72c25c
-135.4591286,59.2410638,320,Allen Rd,,,,,,,d7498f73d8df6128
-135.4592481,59.2407345,310,Allen Rd,,,,,,,9c58e460369bb61a
-135.4591925,59.240349,296,Allen Rd,,,,,,,52684c10b1ed3057
-135.4592836,59.2416329,334,Allen Rd,,,,,,,14660047cf7a0b83
-135.459316,59.2418127,346,Allen Rd,,,,,,,9db3ce45b6d9b370
-135.4593726,59.2419736,354,Allen Rd,,,,,,,e5562e163ba92052
-135.4593463,59.2421619,360,Allen Rd,,,,,,,d4cdfc1f258af44f
-135.462814,59.2414566,806,Comstock Rd,,,,,,,155c7068922c12bb
-135.4591183,59.2425427,376,Allen Rd,,,,,,,42982cbd1c0c90aa
-135.4598923,59.2426588,373,Allen Rd,,,,,,,e6baad31d8a220e7
-135.4574712,59.2431702,382,Allen Rd,,,,,,,010bd20f873eb514
-135.4590248,59.243421,404,Allen Rd,,,,,,,85134eccfb9f8dbe
-135.460175,59.2437424,426,Allen Rd,,,,,,,2041fb23d23069c3
-135.4617942,59.2440682,452,Allen Rd,,,,,,,af2989de933a583e
-135.4655219,59.2447465,473,Allen Rd,,,,,,,ad7e63b6054c7df3
-135.4695344,59.2439162,111,Anway Rd,,,,,,,7d5cb0e2f498fa31
-135.4728621,59.2445749,64,Anway Rd,,,,,,,7fd514ca27e2b288
-135.4714065,59.2446974,78,Anway Rd,,,,,,,d4b70bf40a8a7616
-135.4730734,59.2449565,50,Anway Rd,,,,,,,2a5a2a57f9925e4f
-135.4759682,59.2440812,233,Piedad Rd,,,,,,,1093470bbbffeda8
-135.4756697,59.2433462,201,Piedad Rd,,,,,,,6cffa1a5a16dacf7
-135.4832214,59.2448992,336,Cathedral View Dr,,,,,,,ff907d489e325bc5
-135.4842278,59.2448973,332,Cathedral View Dr,,,,,,,154500e552b158ca
-135.4848667,59.245763,198,Hooter Ln,,,,,,,f2b39aad47dcee50
-135.4906586,59.2442294,81,Cathedral View Dr,,,,,,,f460e6c27b2a65c7
-135.5029,59.2437521,1830,Haines Hwy,,,,,,,0cee1076fead9937
-135.4930536,59.2432522,1598,Haines Hwy,,,,,,,e76d8e0bc1f77416
-135.4956749,59.2433469,1660,Haines Hwy,,,,,,,b50284d7b47c152d
-135.4923056,59.2451227,28,Hooter Ln,,,,,,,4dfe62e5aadb24f0
-135.4906453,59.2454992,78,Hooter Ln,,,,,,,50b9f8b01104d457
-135.4900749,59.244182,79,Cathedral View Dr,,,,,,,3329cbb4efc51007
-135.4898666,59.2436128,54,Cathedral View Dr,,,,,,,8ed55e8c1dc29c67
-135.487186,59.2444821,281,Cathedral View Dr,,,,,,,4ce26e2e4e8478fb
-135.4864127,59.2444393,299,Cathedral View Dr,,,,,,,484f95d5eb5e7bc9
-135.485488,59.2443117,315,Cathedral View Dr,,,,,,,4be37e4803d46586
-135.4866024,59.2433694,1,Cathedral View Dr,,,,,,,d7fcf573cd3b73df
-135.4855248,59.2430333,1460,Haines Hwy,,,,,,,066b1333f6b87dc2
-135.4836078,59.2431659,1426,Haines Hwy,,,,,,,937a6391ebe68afb
-135.48321,59.2426794,1420,Haines Hwy,,,,,,,cf7d8f162c5000be
-135.4816862,59.2422245,1390,Haines Hwy,,,,,,,2ccd0b8d54fb1d48
-135.4687287,59.2414941,239,N Sawmill Rd,,,,,,,bf18a04a659a2020
-135.4682297,59.2418576,244,N Sawmill Rd,,,,,,,a1f5d97540bf6446
-135.4730464,59.243988,61,Anway Rd,,,,,,,075a180c0f7e4383
-135.4616815,59.2389455,121,Chestnut Dr,,,,,,,79361e2bb54dc3a1
-135.4622962,59.2388309,107,Chestnut Dr,,,,,,,ed1d0a55b22d1a61
-135.4729283,59.2371089,1159,Haines Hwy,,,,,,,0b3b4f3199ce164d
-135.4720135,59.2369236,209,S Sawmill Rd,,,,,,,a459843d507da32d
-135.4708642,59.2366595,1085,Haines Hwy,,,,,,,20e85a7421464e46
-135.4704283,59.236524,1069,Haines Hwy,,,,,,,2dd515f4c386243f
-135.4693296,59.2361338,1053,Haines Hwy,,,,,,,68a85614019cd50b
-135.4687488,59.2357431,1041,Haines Hwy,,,,,,,23f756afa7d2161a
-135.4687097,59.2355787,208,Jones Point Dr,,,,,,,b6525003f4e0076e
-135.4664877,59.2352766,987,Haines Hwy,,,,,,,c15cb827cca931d4
-135.4669855,59.234811,995,Haines Hwy,,,,,,,cd6fbdc1d5a5cb3e
-135.4674771,59.2349221,1003,Haines Hwy,,,,,,,c0a4388bdf2fb924
-135.4682037,59.2348932,1029,Haines Hwy,,,,,,,5900789f8a11619d
-135.4636825,59.2360408,832,Spruce Grove Rd,,,,,,,43176b525c619ab8
-135.4653637,59.2362164,862,Spruce Grove Rd,,,,,,,e965713dd587dd06
-135.4658947,59.2363178,872,Spruce Grove Rd,,,,,,,6775bf86a81a32d6
-135.4679968,59.2362438,891,Spruce Grove Rd,,,,,,,e2b05e69056e7404
-135.4680402,59.2366519,890,Spruce Grove Rd,#4,,,,,,741e0cb1c32a6a76
-135.4684317,59.236678,890,Spruce Grove Rd,#2,,,,,,c494ee0e2482cac4
-135.4686934,59.2367163,890,Spruce Grove Rd,#1,,,,,,de611add1e5167b3
-135.4672581,59.2361503,890,Spruce Grove Rd,#11,,,,,,6d2b78d083b044ac
-135.4674212,59.2361462,890,Spruce Grove Rd,#12,,,,,,1a7bf1d15573bf51
-135.4697562,59.2371847,16,N Sawmill Rd,,,,,,,dc00013fb3ebe821
-135.4690971,59.2377444,30,N Sawmill Rd,,,,,,,8bc0b26851c80df2
-135.4679724,59.2381755,52,N Sawmill Rd,,,,,,,b11022ac7cf7812f
-135.472354,59.2394548,1168,Haines Hwy,,,,,,,6354717609747fdf
-135.4829927,59.2444642,348,Cathedral View Dr,,,,,,,963680e2e2bf09c7
-135.4955999,59.2444665,16,Hooter Ln,,,,,,,dcefe4db53251f7b
-135.4345991,59.2267785,142,S Beach Rd,,,,,,,82c6ce916c7a1df3
-135.5244434,59.2463932,0,Hanger Rd,,,,,,,1833b6d2cb9878c1
-135.5239318,59.2461409,0,Hanger Rd,,,,,,,8ac359be5f4a71fc
-135.5266728,59.2466029,0,Airport Rd,,,,,,,9bd77dacc44e1721
-135.5271308,59.2466849,0,Airport Rd,,,,,,,0ad39705e0163f3c
-135.5303287,59.2473101,0,Airport Rd,,,,,,,e1240a036ac6cd6d
-135.5310081,59.2474189,0,Airport Rd,,,,,,,78ca25c9a6eca37b
-135.5313933,59.2474918,0,Airport Rd,,,,,,,41f75e8c40cf9011
-135.5332813,59.2478217,0,Airport Rd,,,,,,,f12c2b89b726dcd7
-135.5323664,59.2477847,0,Airport Rd,,,,,,,c7883a16fd4b7786
-135.5293778,59.2472787,0,Airport Rd,,,,,,,8aba707154fabaa0
-135.5063555,59.2432908,1830,Haines Hwy,,,,,,,71c834b34124b3b0
-135.4944588,59.2430177,1638,Haines Hwy,,,,,,,7356549ad7a01631
-135.4923732,59.2440602,94,Cathedral View Dr,,,,,,,8376dfdccfc5fcf1
-135.480366,59.2417923,1344,Haines Hwy,,,,,,,4798cb7cde7597f7
-135.4932008,59.2424751,1621,Haines Hwy,,,,,,,20ec9daa03e52413
-135.4811051,59.2391188,269,Golf Course Rd,,,,,,,97a8d6f391caa08d
-135.4784191,59.2372667,287,Well Field Rd,,,,,,,bb50f04d521d6bfe
-135.476252,59.2451576,330,Piedad Rd,,,,,,,81a1e2e3e055a586
-135.4767485,59.2435529,206,Piedad Rd,,,,,,,aba33326271bf051
-135.472656,59.2318747,365,Jones Point Dr,,,,,,,49cfc7a06e625a9e
-135.4706541,59.2331007,315,Jones Point Dr,,,,,,,b4afcabdf30c85b1
-135.4682673,59.2366507,890,Spruce Grove Rd,#3,,,,,,441799dda81d6aac
-135.4793362,59.2410417,1322,Haines Hwy,,,,,,,8bfbefc211ed6526
-135.4701273,59.2428662,137,Moose Ln,,,,,,,70d21229d09081e8
-135.4692357,59.2433632,411,N Sawmill Rd,,,,,,,849ee009979d7f3f
-135.4659209,59.2449384,475,Allen Rd,,,,,,,56aaff3bdb03182c
-135.4631829,59.2354069,917,Main St,,,,,,,796f02cd03426728
-135.4573739,59.2324195,272,Fair Dr,,,,,,,4715a85ae7cf2f08
-135.4583744,59.2333921,229,Fair Dr,,,,,,,74551fc44692f3cd
-135.436275,59.2471637,1001,Young Rd,,,,,,,e853db314123564d
-135.4385047,59.2417368,125,E Mathias Ave,,,,,,,9ab9d37b3ed5eae1
-135.4277039,59.2439716,372,Lutak Rd,,,,,,,d7188859fd56fdd4
-135.4754194,59.2390881,1213,Haines Hwy,,,,,,,2dda0bdba7b71469
-135.4755752,59.2418698,6,Sunshine Rd,,,,,,,f8e8214f35f96be6
-135.4758753,59.2434479,203,Piedad Rd,,,,,,,8de7438c266fb2d8
-135.4814099,59.2445503,200,Piedad Rd,,,,,,,bff04bee5a72b769
-135.5019844,59.2436288,1786,Haines Hwy,,,,,,,6e6f2ef3a4b79289
-135.4761778,59.234464,373,S Sawmill Rd,,,,,,,dcd9bf198837a467
-135.4753709,59.234551,371,S Sawmill Rd,,,,,,,218ec4ae48e64201
-135.4794825,59.2330122,405,S Sawmill Rd,,,,,,,f1fcbdfcb11be475
-135.4799755,59.232238,444,S Sawmill Rd,,,,,,,cfb10196b22f0f4b
-135.4631243,59.2361358,822,Spruce Grove Rd,,,,,,,19063fa1051dcb67
-135.447884,59.2432775,270,W Oslund Dr,,,,,,,a09c92434f0fcfa0
-135.4352057,59.2442409,873,E Oslund Dr,,,,,,,fc9558afd26709a9
-135.4459295,59.2693402,1313,Lutak Rd,,,,,,,24ab3f6b34ba8ae9
-135.4459401,59.2688663,1299,Lutak Rd,,,,,,,4cff0ce4c093b5fd
-135.4459584,59.2683974,18,Dolphin St,,,,,,,9a1548e57fb1fc7a
-135.4459832,59.2679372,17,Dolphin St,,,,,,,6719e15d99d49609
-135.444459,59.2677395,1252,Lutak Rd,,,,,,,8d4cf9091ea37a10
-135.4474984,59.2678556,45,Dolphin St,,,,,,,85a458a9f983805d
-135.4481022,59.2684885,46,Dolphin St,,,,,,,18a3989cb5ddfdb2
-135.4444221,59.2672863,1238,Lutak Rd,,,,,,,c08b7d2169a8dd2b
-135.4445404,59.2668669,1226,Lutak Rd,,,,,,,6354a191305d7936
-135.4461237,59.2663991,1215,Lutak Rd,,,,,,,9b09c365d76ae0e0
-135.4449217,59.2649381,1170,Lutak Rd,,,,,,,1d21e574b98c33cd
-135.4451943,59.2641188,1140,Lutak Rd,,,,,,,a087ca1e3a1bef4f
-135.4430199,59.2604403,1029,Lutak Rd,,,,,,,8f60b7c9e9dad83f
-135.4456435,59.2403583,241,W Mathias Ave,,,,,,,6c876275270317ea
-135.4453961,59.240292,243,W Mathias Ave,,,,,,,c9b2723596bb4aaa
-135.4419938,59.2259383,25,Ft. Seward Dr,,,,,,,a3bfe9563feb54a3
-135.4412328,59.2268784,21,Ft. Seward Dr,,,,,,,334fe6161dd4304a
-135.4384951,59.2283321,50,S Beach Rd,,,,,,,46c6738906157d48
-135.4386441,59.2285338,40,S Beach Rd,,,,,,,f38e2fb2189bc5cf
-135.438933,59.221361,36,Mt. Riley Rd,,,,,,,5aeb3e4ebaeab003
-135.4428609,59.2376092,223,N 1st Ave,,,,,,,a805afaf550cf38c
-135.4429787,59.2422565,14,E Barnett Dr,,,,,,,06fa5608c478ab91
-135.4474914,59.2317703,315,Haines Hwy,,,,,,,5a4ad381299d98a3
-135.445928,59.2309799,113,Haines Hwy,,,,,,,83d0b73252b3fa6a
-135.4356087,59.2270641,148,S Beach Rd,,,,,,,4f415005a50ec6a0
-135.4689799,59.2364778,1058,Haines Hwy,,,,,,,c40a908decb4203e
-135.4772196,59.238356,245,Well Field Rd,,,,,,,14254352d593aa5f
-135.431361,59.2181007,823,FAA Rd,,,,,,,ac9d7072340b4030
-135.4723097,59.2359736,249,S Sawmill Rd,,,,,,,c29039980ecf9cdc
-135.4721411,59.2363267,235,S Sawmill Rd,,,,,,,33314e34ccca8fd7
-135.4401892,59.242507,67,E Oslund Dr,,,,,,,6212bb5d0b6699e9
-135.4487456,59.2351552,327,Main St,,,,,,,45dc755373642cfd
-135.4549572,59.2307079,423,Chilkoot Loop,,,,,,,c3eee17d1d52dc0c
-135.4702603,59.2827453,2233,Lutak Rd,,,,,,,207bf85da38638f2
-135.4629519,59.2815891,2112,Lutak Rd,,,,,,,4426609a789d09f9
-135.4445214,59.2665572,1220,Lutak Rd,,,,,,,ded400256b70ae8e
-135.4449934,59.265348,1190,Lutak Rd,,,,,,,0ec9c34c881ff4a0
-135.445089,59.2644251,1150,Lutak Rd,,,,,,,d3de2027ed488c41
-135.4454969,59.2619628,1039,Lutak Rd,,,,,,,3c9ceb7408bd43fb
-135.4378029,59.2417652,135,E Mathias Ave,,,,,,,ed8dedbb1410e081
-135.4403452,59.2397396,370,N 1st Ave,,,,,,,6b329f69d85b7006
-135.4540218,59.2345239,604,Haines Hwy,,,,,,,57c8ea3592666398
-135.4685159,59.2357267,1031,Haines Hwy,,,,,,,2aa836bafc2f32d7
-135.4201875,59.2220378,388,Mt. Riley Rd,,,,,,,d7a2ac9a25e170e4
-135.4025094,59.2216935,780,S Beach Rd,,,,,,,56deaf3a33a262a3
-135.4486652,59.2407623,435,N 4th Ave,M8,,,,,,3ae874332f925cea
-135.4484184,59.2421291,603,N 4th Ave,,,,,,,4aba12967d487d6e
-135.4484375,59.2422773,617,N 4th Ave,,,,,,,4d8b48c34e402e34
-135.4477799,59.2421139,604,N 4th Ave,,,,,,,b51084925f92049e
-135.4477705,59.2419299,602,N 4th Ave,,,,,,,1ef8aee085ca7215
-135.4560437,59.2405573,39,Helms Loop Spur,,,,,,,310ef86531cdf607
-135.4578571,59.231695,311,Chilkoot Loop,,,,,,,08541dabe2498f80
-135.4696671,59.2419599,114,Sunshine Rd,,,,,,,35b7a91c53bd0a06
-135.4427595,59.2245468,407,FAA Rd,,,,,,,cd151c632fcb8d3f
-135.4484813,59.2284521,334,S 3rd Ave,,,,,,,9a8043fd61ff3a66
-135.4476382,59.2285561,303,S 2nd Ave,,,,,,,738f3e3fde4c0314
-135.4601108,59.2353451,851,Main St,,,,,,,53076254505a19e4
-135.4657603,59.231748,322,West Fair Dr,,,,,,,64f8d3a1462e21b6
-135.4676734,59.2365884,890,Spruce Grove Rd,#5,,,,,,d32aa21c2cd864ac
-135.4376299,59.2211305,59,Mt. Riley Rd,,,,,,,79ff295ec34d5d43
-135.4687511,59.2412338,231,N Sawmill Rd,,,,,,,0c1d1b319c7c0b26
-135.4714677,59.2413334,87,Sunshine Rd,,,,,,,ec192710b3625613
-135.429933,59.2227031,198,Mt. Riley Rd,,,,,,,324d678901ca5e58
-135.4767737,59.2408774,48,Piedad Rd,,,,,,,c32239ee20716a82
-135.4847356,59.2442991,325,Cathedral View Dr,,,,,,,167fa0829857f1df
-135.4556863,59.2208902,152,River Rd,,,,,,,ff6feb510b2b35bc
-135.4558595,59.2219031,43,Raven Rd,,,,,,,b4c77a534e3190ee
-135.4488885,59.2133409,850,Mud Bay Rd,,,,,,,a2f4050e3b9d96ec
-135.4665643,59.2452563,490,Allen Rd,,,,,,,eb868d3b11d367c1
-135.4612992,59.2321297,100,White Fang Way,,,,,,,8810ae50112ab35b
-135.4610934,59.2322102,101,White Fang Way,,,,,,,ef29b284b93d684b
-135.4609626,59.2322105,103,White Fang Way,,,,,,,2864825fde5bbbf3
-135.4608319,59.2322116,105,White Fang Way,,,,,,,dcc0af62fa80b729
-135.4606927,59.2322092,107,White Fang Way,,,,,,,5d2fa3bbc3a1f3ef
-135.4605635,59.2322123,109,White Fang Way,,,,,,,1e3a2e0335c81b36
-135.460451,59.2322151,112,White Fang Way,,,,,,,a1d24c6c1f77ee3c
-135.4602633,59.2322164,115,White Fang Way,,,,,,,7683a2d0f6fdc664
-135.460265,59.2320332,114,White Fang Way,,,,,,,299620506553f93c
-135.4604068,59.2320313,112,White Fang Way,,,,,,,44cc49b2b35050be
-135.460543,59.2320294,110,White Fang Way,,,,,,,daa383eeb49a20c8
-135.4606959,59.2320288,108,White Fang Way,,,,,,,34eb39e64bac9d07
-135.4608404,59.2320254,106,White Fang Way,,,,,,,63df4affb8f85acb
-135.460985,59.2320242,104,White Fang Way,,,,,,,08d703261360fd36
-135.4611364,59.2320193,102,White Fang Way,,,,,,,cd1c58dc2589364c
-135.460367,59.2322172,113,White Fang Way,,,,,,,36a59ac43790a67e
-135.4600173,59.2318869,297,Fair Dr,,,,,,,4e91dbdac1305a58
-135.400692,59.2208222,818,S Beach Rd,,,,,,,1b34b255f4a13271
-135.5159482,59.2986947,3299,Lutak Rd,,,,,,,cc1c15a2bae7ad40
-135.5181722,59.2987588,3321,Lutak Rd,,,,,,,08993bacea104564
-135.5347556,59.3046095,3713,Lutak Rd,,,,,,,05996a91ff26616f
-135.4120355,59.2234195,606,S Beach Rd,,,,,,,7dd8b0ed188c5c10
-135.4486551,59.2406272,435,N 4th Ave,M6,,,,,,5df86ce49d687a0f
-135.4486799,59.2413848,435,N 4th Ave,M14,,,,,,d4f8a6f0e65b2177
-135.4473751,59.2407181,434,N 4th Ave,3B,,,,,,c47f25fa653b1a9c
-135.4473659,59.2409914,434,N 4th Ave,11B,,,,,,7983a917acb37813
-135.4386812,59.220834,23,Mt. Riley Rd,,,,,,,ba730304e37d1dfb
-135.4284904,59.2430136,330,Lutak Rd,,,,,,,760ede87382caca3
-135.4333656,59.2473994,42,Skyline Dr,,,,,,,17898f1601c956eb
-135.4675159,59.2826798,2152,Lutak Rd,,,,,,,973504df99357cad
-135.467286,59.2826968,2150,Lutak Rd,,,,,,,53fe33c749223406
-135.4664676,59.2819559,2120,Lutak Rd,,,,,,,c32fa30b0b5d97fc
-135.4446351,59.2709797,1347,Lutak Rd,,,,,,,2b5324f10e5619ce
-135.4507044,59.269418,78,Dolphin St,,,,,,,9a44d354b33e33c1
-135.4448078,59.2616034,1035,Lutak Rd,,,,,,,5875c298d6c7ffd2
-135.4355661,59.2447301,876,Highland Dr,,,,,,,33a548e2a362d436
-135.4353841,59.245972,931,Muncaster Rd,,,,,,,0b74cca41093d1cb
-135.4451053,59.2617253,1037,Lutak Rd,,,,,,,7a9c7771278da6e1
-135.4493368,59.2359927,23,N 4th Ave,,,,,,,4c07e1a549600aa1
-135.4465076,59.2350071,221,Main St,,,,,,,05f6ecca0c52371e
-135.446677,59.2350201,225,Main St,,,,,,,bee8c419e73dded1
-135.4467847,59.2350234,227,Main St,,,,,,,31fdfa93b72bdf81
-135.4468684,59.235027,229,Main St,,,,,,,b81cf1821f200264
-135.4469354,59.2350318,231,Main St,,,,,,,79925cbfce05cbb6
-135.4470434,59.2350408,233,Main St,,,,,,,682fc001b4a05a44
-135.4409293,59.2373526,217,N Front St,,,,,,,c9ae96e722bc34fd
-135.4593735,59.2404671,298,Allen Rd,,,,,,,a1765794073490b0
-135.417979,59.2222233,426,Mt. Riley Rd,,,,,,,18c92eee7a4c1a98
-135.4391122,59.2280359,48,S Beach Rd,,,,,,,3ececa67295ac578
-135.4441371,59.2402279,437,Young Rd,,,,,,,b29574963f98e5cf
-135.4432761,59.240878,458,Young Rd,,,,,,,6cde05a2abf63f1a
-135.441357,59.2414636,48,E Mathias Ave,,,,,,,56e4bbc46f28f498
-135.4416162,59.2413822,44,E Mathias Ave,,,,,,,094f140ef5f67c85
-135.441744,59.2413415,42,E Mathias Ave,,,,,,,7e6e193790e7c407
-135.4371439,59.2462064,941,Young Rd,,,,,,,b7c4f3db15cd421c
-135.4388504,59.2420546,91,E Barnett Dr,,,,,,,614a94942aee018b
-135.4458214,59.2388001,316,Lynnvue Dr,,,,,,,7ea4150f4ae1ec4d
-135.4458071,59.2390655,326,Lynnvue Dr,,,,,,,a500aeac64d2ed3e
-135.4479216,59.2246418,343,Bartlett Blvd,,,,,,,027b0e39f2561ef3
-135.4297291,59.2450724,21,Haven Ct,,,,,,,93620afc0b5239e2
-135.4509723,59.2372762,125,N 5th Ave,,,,,,,50c565f6164f42e6
-135.4489033,59.2355667,10,N 4th Ave,,,,,,,c69514fa01cb36b5
-135.4414374,59.2329885,52,S Front St,,,,,,,086331969287f9fd
-135.4417907,59.231817,110,S Front St,,,,,,,8f97d0d147bfccfb
-135.4424483,59.232201,97,S Front St,,,,,,,d3795af14fde3bc2
-135.4423287,59.2303509,165,S Front St,,,,,,,6b995008bbe130de
-135.4479963,59.2236669,419,Mud Bay Rd,,,,,,,a6887f60dd58efa5
-135.4491832,59.2209699,555,Mud Bay Rd,,,,,,,99f7ecd0a758557e
-135.4464223,59.220055,572,Mud Bay Rd,,,,,,,4d14adaecbee07de
-135.4672302,59.2309729,359,West Fair Dr,,,,,,,ab27db62f73b1ce2
-135.447563,59.2338724,112,S 3rd Avenue,,,,,,,ed9793ffb6a5b5d1
-135.448281,59.2364343,322,Dalton St,,,,,,,4e74f322954d96d9
-135.4276462,59.2218717,230,Mt. Riley Road,,,,,,,eed3fffc66c87b94
-135.5517249,59.315337,16,Raven Dr,,,,,,,8d53ffdb41f53b92
-135.5517062,59.314672,22,Raven Dr,,,,,,,ab1840c9621c187c
-135.5516264,59.3138433,36,Raven Dr,,,,,,,9baecd60e1d2ac2d
-135.5530342,59.3129139,42,Raven Dr,,,,,,,b9f353872fe72266
-135.5537423,59.3132216,46,Raven Dr,,,,,,,e87441f352877d6d
-135.5535766,59.3143437,53,Raven Dr,,,,,,,2bde7f32b519434d
-135.5544379,59.3140493,56,Raven Dr,,,,,,,89143e056ad8d64b
-135.5548091,59.3146796,68,Raven Dr,,,,,,,36d53f9a69d18088
-135.4415934,59.2341146,32,South Front Street,,,,,,,e2e4c64cf2569c12
